G21 ; mm
G90 ; Absolute
G00 Z5
G00 X128.5 Y49.5
G01 Z-1 F200
G01 X128.5 Y49.5 F600
G01 X127.5 Y50.0 F600
G01 X127.5 Y55.5 F600
G01 X127.0 Y56.5 F600
G01 X125.5 Y56.5 F600
G01 X121.5 Y56.0 F600
G01 X121.5 Y52.0 F600
G01 X121.0 Y50.0 F600
G01 X115.5 Y50.0 F600
G01 X112.0 Y50.5 F600
G01 X112.0 Y53.5 F600
G01 X112.0 Y58.0 F600
G01 X110.0 Y58.0 F600
G01 X108.0 Y59.0 F600
G01 X107.0 Y58.0 F600
G01 X107.0 Y56.5 F600
G01 X106.5 Y55.0 F600
G01 X106.0 Y53.5 F600
G01 X105.5 Y52.5 F600
G01 X104.0 Y52.5 F600
G01 X102.5 Y53.5 F600
G01 X101.0 Y53.5 F600
G01 X99.5 Y54.0 F600
G01 X98.5 Y54.5 F600
G01 X97.0 Y55.0 F600
G01 X97.0 Y57.0 F600
G01 X97.5 Y58.5 F600
G01 X98.5 Y60.0 F600
G01 X98.0 Y62.0 F600
G01 X96.0 Y63.0 F600
G01 X94.5 Y64.0 F600
G01 X93.0 Y62.5 F600
G01 X92.0 Y60.0 F600
G01 X91.0 Y58.5 F600
G01 X89.5 Y58.5 F600
G01 X88.0 Y59.5 F600
G01 X85.5 Y60.5 F600
G01 X84.5 Y61.5 F600
G01 X83.5 Y61.5 F600
G01 X82.5 Y63.0 F600
G01 X83.5 Y64.0 F600
G01 X84.0 Y65.0 F600
G01 X85.0 Y67.0 F600
G01 X86.0 Y68.0 F600
G01 X84.0 Y70.0 F600
G01 X81.0 Y71.0 F600
G01 X79.0 Y68.0 F600
G01 X78.0 Y67.0 F600
G01 X76.5 Y67.0 F600
G01 X73.5 Y69.5 F600
G01 X70.5 Y72.0 F600
G01 X70.5 Y73.0 F600
G01 X75.0 Y77.5 F600
G01 X73.0 Y80.0 F600
G01 X71.0 Y81.5 F600
G01 X69.0 Y79.5 F600
G01 X66.0 Y77.5 F600
G01 X65.0 Y78.5 F600
G01 X63.5 Y80.5 F600
G01 X61.5 Y83.0 F600
G01 X60.5 Y85.0 F600
G01 X62.0 Y86.5 F600
G01 X64.0 Y87.5 F600
G01 X65.5 Y89.0 F600
G01 X65.5 Y90.0 F600
G01 X64.0 Y93.0 F600
G01 X62.5 Y93.5 F600
G01 X61.5 Y92.5 F600
G01 X58.5 Y91.0 F600
G01 X56.5 Y91.5 F600
G01 X55.5 Y93.5 F600
G01 X55.5 Y94.5 F600
G01 X53.5 Y98.0 F600
G01 X53.5 Y99.5 F600
G01 X54.5 Y100.0 F600
G01 X55.5 Y100.0 F600
G01 X57.0 Y101.0 F600
G01 X58.0 Y101.0 F600
G01 X59.0 Y101.5 F600
G01 X59.5 Y103.0 F600
G01 X59.0 Y104.5 F600
G01 X58.5 Y106.0 F600
G01 X56.5 Y106.5 F600
G01 X55.5 Y106.5 F600
G01 X53.5 Y105.5 F600
G01 X51.0 Y105.5 F600
G01 X51.0 Y107.5 F600
G01 X50.0 Y110.5 F600
G01 X49.5 Y113.0 F600
G01 X49.5 Y115.0 F600
G01 X51.5 Y115.0 F600
G01 X54.5 Y115.5 F600
G01 X55.5 Y116.0 F600
G01 X56.0 Y120.5 F600
G01 X54.0 Y121.0 F600
G01 X48.5 Y121.0 F600
G01 X49.0 Y130.5 F600
G01 X52.5 Y130.0 F600
G01 X55.0 Y130.0 F600
G01 X56.0 Y131.0 F600
G01 X56.0 Y132.5 F600
G01 X56.0 Y135.0 F600
G01 X55.0 Y136.0 F600
G01 X52.5 Y136.0 F600
G01 X49.5 Y137.0 F600
G01 X49.5 Y138.5 F600
G01 X50.0 Y141.0 F600
G01 X50.5 Y143.5 F600
G01 X51.5 Y146.0 F600
G01 X52.5 Y146.0 F600
G01 X55.0 Y145.0 F600
G01 X56.5 Y145.0 F600
G01 X57.5 Y144.5 F600
G01 X58.5 Y145.5 F600
G01 X58.5 Y147.0 F600
G01 X59.0 Y148.0 F600
G01 X59.5 Y149.0 F600
G01 X58.5 Y150.0 F600
G01 X57.5 Y150.0 F600
G01 X55.0 Y151.5 F600
G01 X53.5 Y151.5 F600
G01 X53.5 Y153.5 F600
G01 X55.0 Y156.0 F600
G01 X55.0 Y157.0 F600
G01 X55.5 Y158.5 F600
G01 X56.5 Y160.0 F600
G01 X57.0 Y161.0 F600
G01 X58.0 Y160.5 F600
G01 X59.5 Y159.5 F600
G01 X60.5 Y159.0 F600
G01 X62.0 Y158.5 F600
G01 X63.0 Y158.0 F600
G01 X64.0 Y159.0 F600
G01 X64.0 Y160.0 F600
G01 X65.5 Y161.5 F600
G01 X65.5 Y162.5 F600
G01 X64.5 Y163.5 F600
G01 X63.0 Y164.0 F600
G01 X61.0 Y165.5 F600
G01 X60.5 Y167.0 F600
G01 X61.5 Y168.0 F600
G01 X62.0 Y169.5 F600
G01 X63.5 Y171.0 F600
G01 X64.0 Y172.5 F600
G01 X66.0 Y174.0 F600
G01 X67.0 Y173.0 F600
G01 X69.0 Y171.5 F600
G01 X70.5 Y170.5 F600
G01 X71.5 Y170.5 F600
G01 X74.5 Y174.0 F600
G01 X70.0 Y179.0 F600
G01 X74.0 Y183.0 F600
G01 X76.5 Y185.0 F600
G01 X77.5 Y185.0 F600
G01 X80.0 Y181.5 F600
G01 X81.5 Y180.0 F600
G01 X82.5 Y181.0 F600
G01 X84.5 Y182.0 F600
G01 X85.0 Y184.5 F600
G01 X83.5 Y186.5 F600
G01 X82.5 Y187.5 F600
G01 X82.0 Y189.0 F600
G01 X83.5 Y190.0 F600
G01 X85.0 Y190.5 F600
G01 X86.0 Y191.5 F600
G01 X87.5 Y192.0 F600
G01 X88.5 Y193.0 F600
G01 X89.5 Y193.5 F600
G01 X91.0 Y193.0 F600
G01 X93.0 Y188.5 F600
G01 X94.0 Y187.5 F600
G01 X95.0 Y188.0 F600
G01 X96.5 Y189.0 F600
G01 X97.5 Y189.0 F600
G01 X98.0 Y191.0 F600
G01 X97.5 Y192.0 F600
G01 X97.5 Y193.0 F600
G01 X96.5 Y195.0 F600
G01 X96.5 Y196.5 F600
G01 X97.5 Y196.5 F600
G01 X99.0 Y197.0 F600
G01 X100.5 Y197.5 F600
G01 X102.0 Y198.5 F600
G01 X103.5 Y199.0 F600
G01 X104.5 Y199.5 F600
G01 X105.5 Y199.0 F600
G01 X105.5 Y197.5 F600
G01 X106.0 Y195.5 F600
G01 X106.5 Y193.5 F600
G01 X107.5 Y192.5 F600
G01 X110.0 Y193.0 F600
G01 X112.0 Y195.0 F600
G01 X111.5 Y197.5 F600
G01 X111.5 Y200.5 F600
G01 X114.0 Y200.5 F600
G01 X119.5 Y201.5 F600
G01 X121.0 Y201.0 F600
G01 X121.0 Y195.5 F600
G01 X122.0 Y194.5 F600
G01 X126.0 Y194.5 F600
G01 X127.0 Y195.5 F600
G01 X127.5 Y201.5 F600
G01 X129.0 Y201.5 F600
G01 X136.5 Y200.5 F600
G01 X136.5 Y198.5 F600
G01 X136.0 Y195.5 F600
G01 X135.5 Y194.5 F600
G01 X136.5 Y193.5 F600
G01 X139.0 Y193.0 F600
G01 X141.0 Y193.5 F600
G01 X141.5 Y194.5 F600
G01 X141.5 Y196.5 F600
G01 X142.0 Y198.0 F600
G01 X142.5 Y199.0 F600
G01 X144.0 Y199.0 F600
G01 X145.0 Y198.5 F600
G01 X146.0 Y198.5 F600
G01 X147.5 Y197.5 F600
G01 X148.5 Y197.5 F600
G01 X150.5 Y196.5 F600
G01 X151.5 Y196.5 F600
G01 X151.5 Y195.0 F600
G01 X151.0 Y193.5 F600
G01 X149.5 Y191.0 F600
G01 X150.0 Y189.5 F600
G01 X151.0 Y189.0 F600
G01 X152.0 Y189.0 F600
G01 X153.5 Y188.0 F600
G01 X155.0 Y188.5 F600
G01 X157.0 Y193.0 F600
G01 X158.5 Y193.5 F600
G01 X160.5 Y192.5 F600
G01 X161.5 Y191.5 F600
G01 X163.0 Y191.0 F600
G01 X164.5 Y190.0 F600
G01 X165.5 Y189.5 F600
G01 X165.5 Y188.0 F600
G01 X165.0 Y187.0 F600
G01 X164.0 Y185.5 F600
G01 X163.0 Y184.5 F600
G01 X162.5 Y183.5 F600
G01 X164.0 Y182.0 F600
G01 X166.0 Y180.5 F600
G01 X167.0 Y180.5 F600
G01 X168.0 Y181.5 F600
G01 X170.0 Y184.5 F600
G01 X171.5 Y185.0 F600
G01 X175.0 Y182.0 F600
G01 X177.5 Y179.5 F600
G01 X177.5 Y178.0 F600
G01 X174.0 Y173.0 F600
G01 X175.0 Y172.0 F600
G01 X176.5 Y170.5 F600
G01 X177.5 Y170.5 F600
G01 X179.0 Y172.0 F600
G01 X181.0 Y173.5 F600
G01 X183.0 Y173.5 F600
G01 X185.0 Y171.0 F600
G01 X187.0 Y168.5 F600
G01 X188.0 Y166.5 F600
G01 X187.0 Y165.5 F600
G01 X185.5 Y164.5 F600
G01 X183.5 Y163.5 F600
G01 X182.5 Y162.0 F600
G01 X183.5 Y161.0 F600
G01 X184.5 Y158.5 F600
G01 X186.0 Y158.5 F600
G01 X190.0 Y160.5 F600
G01 X191.5 Y160.5 F600
G01 X192.0 Y159.5 F600
G01 X193.0 Y157.5 F600
G01 X193.0 Y156.5 F600
G01 X194.5 Y153.5 F600
G01 X194.5 Y152.0 F600
G01 X193.5 Y151.5 F600
G01 X192.5 Y151.5 F600
G01 X191.0 Y150.5 F600
G01 X190.0 Y150.5 F600
G01 X189.0 Y149.5 F600
G01 X189.0 Y148.5 F600
G01 X189.5 Y147.0 F600
G01 X190.0 Y145.5 F600
G01 X192.0 Y145.0 F600
G01 X193.5 Y145.5 F600
G01 X196.0 Y146.0 F600
G01 X197.5 Y145.5 F600
G01 X197.5 Y143.5 F600
G01 X198.5 Y141.0 F600
G01 X199.0 Y139.0 F600
G01 X199.0 Y137.0 F600
G01 X198.0 Y136.5 F600
G01 X196.0 Y136.5 F600
G01 X192.5 Y135.5 F600
G01 X192.5 Y131.5 F600
G01 X193.5 Y130.5 F600
G01 X200.0 Y130.0 F600
G01 X199.5 Y121.0 F600
G01 X198.5 Y121.0 F600
G01 X197.0 Y121.5 F600
G01 X195.5 Y121.5 F600
G01 X193.5 Y121.5 F600
G01 X192.5 Y120.5 F600
G01 X193.0 Y115.5 F600
G01 X195.0 Y115.5 F600
G01 X198.0 Y115.0 F600
G01 X199.0 Y114.5 F600
G01 X199.0 Y112.5 F600
G01 X198.5 Y110.0 F600
G01 X198.0 Y108.0 F600
G01 X197.5 Y105.5 F600
G01 X195.5 Y105.5 F600
G01 X193.0 Y106.5 F600
G01 X192.0 Y106.5 F600
G01 X191.0 Y107.0 F600
G01 X190.0 Y106.0 F600
G01 X189.5 Y104.5 F600
G01 X189.0 Y103.0 F600
G01 X189.5 Y101.5 F600
G01 X193.5 Y99.5 F600
G01 X195.0 Y99.0 F600
G01 X195.0 Y98.0 F600
G01 X193.5 Y95.5 F600
G01 X193.5 Y94.5 F600
G01 X192.5 Y92.5 F600
G01 X192.0 Y91.0 F600
G01 X191.0 Y90.5 F600
G01 X189.5 Y91.5 F600
G01 X187.0 Y92.5 F600
G01 X185.5 Y93.5 F600
G01 X184.5 Y92.5 F600
G01 X184.0 Y91.0 F600
G01 X183.0 Y90.0 F600
G01 X183.0 Y89.0 F600
G01 X184.5 Y87.5 F600
G01 X186.5 Y86.5 F600
G01 X188.0 Y85.5 F600
G01 X188.0 Y84.5 F600
G01 X187.0 Y83.0 F600
G01 X186.0 Y82.0 F600
G01 X185.0 Y80.0 F600
G01 X183.5 Y78.0 F600
G01 X182.0 Y77.5 F600
G01 X179.5 Y79.5 F600
G01 X177.5 Y81.5 F600
G01 X174.0 Y77.5 F600
G01 X176.5 Y75.0 F600
G01 X178.0 Y73.0 F600
G01 X178.0 Y72.0 F600
G01 X175.5 Y69.5 F600
G01 X171.5 Y66.0 F600
G01 X169.5 Y68.0 F600
G01 X168.0 Y70.5 F600
G01 X167.0 Y71.5 F600
G01 X165.0 Y69.5 F600
G01 X163.5 Y69.0 F600
G01 X163.0 Y67.5 F600
G01 X163.5 Y66.5 F600
G01 X164.5 Y65.5 F600
G01 X165.0 Y64.0 F600
G01 X166.0 Y63.0 F600
G01 X166.0 Y62.0 F600
G01 X165.0 Y61.5 F600
G01 X163.5 Y61.0 F600
G01 X162.5 Y60.0 F600
G01 X160.0 Y59.0 F600
G01 X159.0 Y58.0 F600
G01 X157.5 Y58.5 F600
G01 X156.5 Y61.0 F600
G01 X155.5 Y62.0 F600
G01 X155.0 Y63.5 F600
G01 X154.0 Y63.5 F600
G01 X153.0 Y62.5 F600
G01 X152.0 Y62.5 F600
G01 X151.0 Y62.0 F600
G01 X150.5 Y60.0 F600
G01 X151.0 Y59.0 F600
G01 X151.5 Y57.5 F600
G01 X152.0 Y56.0 F600
G01 X152.0 Y55.0 F600
G01 X151.0 Y54.5 F600
G01 X150.0 Y54.5 F600
G01 X148.5 Y54.0 F600
G01 X146.5 Y53.0 F600
G01 X145.0 Y52.5 F600
G01 X144.0 Y52.0 F600
G01 X143.0 Y52.5 F600
G01 X143.0 Y54.0 F600
G01 X142.0 Y55.5 F600
G01 X142.0 Y57.0 F600
G01 X141.5 Y58.0 F600
G01 X140.0 Y58.5 F600
G01 X137.0 Y58.0 F600
G01 X136.5 Y56.0 F600
G01 X137.0 Y53.0 F600
G01 X136.5 Y50.5 F600
G01 X133.0 Y50.5 F600
G01 X128.5 Y49.5
G00 Z5
G00 X118.5 Y51.0
G01 Z-1 F200
G01 X118.5 Y51.0 F600
G01 X120.0 Y51.5 F600
G01 X120.5 Y55.0 F600
G01 X121.0 Y58.0 F600
G01 X128.0 Y58.0 F600
G01 X128.5 Y57.0 F600
G01 X128.5 Y52.0 F600
G01 X129.5 Y51.0 F600
G01 X130.5 Y51.0 F600
G01 X135.5 Y52.0 F600
G01 X135.5 Y55.0 F600
G01 X135.5 Y59.0 F600
G01 X138.0 Y59.0 F600
G01 X141.0 Y59.5 F600
G01 X142.5 Y59.5 F600
G01 X142.5 Y58.5 F600
G01 X143.5 Y56.5 F600
G01 X143.5 Y55.0 F600
G01 X144.5 Y54.0 F600
G01 X145.5 Y54.0 F600
G01 X147.0 Y54.5 F600
G01 X149.0 Y55.0 F600
G01 X150.0 Y55.5 F600
G01 X150.5 Y57.0 F600
G01 X149.5 Y58.5 F600
G01 X149.0 Y60.0 F600
G01 X149.0 Y61.0 F600
G01 X149.0 Y62.5 F600
G01 X150.0 Y63.0 F600
G01 X151.0 Y63.0 F600
G01 X154.5 Y65.0 F600
G01 X156.0 Y64.5 F600
G01 X157.0 Y63.0 F600
G01 X157.0 Y62.0 F600
G01 X157.5 Y61.0 F600
G01 X159.0 Y59.5 F600
G01 X160.5 Y60.5 F600
G01 X163.5 Y62.0 F600
G01 X164.0 Y63.5 F600
G01 X163.0 Y65.5 F600
G01 X162.0 Y66.5 F600
G01 X161.5 Y67.5 F600
G01 X161.5 Y69.0 F600
G01 X164.0 Y71.0 F600
G01 X166.0 Y72.5 F600
G01 X167.5 Y73.0 F600
G01 X168.5 Y72.0 F600
G01 X170.5 Y69.0 F600
G01 X172.0 Y68.0 F600
G01 X173.5 Y69.5 F600
G01 X174.5 Y70.5 F600
G01 X176.5 Y73.0 F600
G01 X172.5 Y77.0 F600
G01 X172.5 Y78.0 F600
G01 X175.0 Y81.0 F600
G01 X178.5 Y82.5 F600
G01 X180.0 Y81.0 F600
G01 X182.5 Y79.0 F600
G01 X183.5 Y80.0 F600
G01 X184.0 Y81.5 F600
G01 X185.0 Y82.5 F600
G01 X186.5 Y84.5 F600
G01 X185.0 Y86.0 F600
G01 X183.0 Y87.0 F600
G01 X181.5 Y88.0 F600
G01 X181.0 Y89.0 F600
G01 X181.5 Y90.0 F600
G01 X182.5 Y91.0 F600
G01 X183.5 Y92.5 F600
G01 X184.0 Y94.0 F600
G01 X186.0 Y94.5 F600
G01 X190.0 Y92.5 F600
G01 X191.5 Y93.0 F600
G01 X191.5 Y94.0 F600
G01 X193.0 Y97.0 F600
G01 X193.5 Y98.0 F600
G01 X192.5 Y99.0 F600
G01 X191.5 Y99.5 F600
G01 X190.5 Y99.5 F600
G01 X188.5 Y100.5 F600
G01 X187.5 Y101.0 F600
G01 X187.5 Y102.5 F600
G01 X188.0 Y104.0 F600
G01 X188.5 Y105.5 F600
G01 X189.0 Y107.0 F600
G01 X189.5 Y108.0 F600
G01 X191.0 Y108.0 F600
G01 X192.5 Y107.5 F600
G01 X195.0 Y107.0 F600
G01 X196.5 Y107.5 F600
G01 X197.0 Y108.5 F600
G01 X197.5 Y111.5 F600
G01 X197.5 Y113.0 F600
G01 X196.5 Y114.0 F600
G01 X194.0 Y114.0 F600
G01 X192.0 Y114.5 F600
G01 X191.0 Y115.0 F600
G01 X191.0 Y117.0 F600
G01 X192.0 Y122.5 F600
G01 X198.5 Y123.0 F600
G01 X198.5 Y127.5 F600
G01 X199.0 Y128.5 F600
G01 X197.0 Y129.0 F600
G01 X192.5 Y129.0 F600
G01 X191.5 Y129.5 F600
G01 X191.0 Y135.5 F600
G01 X191.5 Y137.0 F600
G01 X194.0 Y137.0 F600
G01 X197.5 Y138.0 F600
G01 X197.5 Y140.0 F600
G01 X197.0 Y142.0 F600
G01 X196.0 Y144.5 F600
G01 X195.0 Y144.5 F600
G01 X192.5 Y143.5 F600
G01 X191.0 Y143.5 F600
G01 X189.5 Y143.5 F600
G01 X189.0 Y144.5 F600
G01 X189.0 Y145.5 F600
G01 X188.0 Y147.5 F600
G01 X187.5 Y149.0 F600
G01 X188.0 Y151.0 F600
G01 X189.0 Y151.0 F600
G01 X191.5 Y152.5 F600
G01 X193.0 Y153.0 F600
G01 X193.0 Y154.0 F600
G01 X191.5 Y156.5 F600
G01 X191.5 Y157.5 F600
G01 X191.0 Y158.5 F600
G01 X189.5 Y158.5 F600
G01 X187.5 Y157.5 F600
G01 X186.5 Y157.5 F600
G01 X185.5 Y157.0 F600
G01 X184.5 Y156.5 F600
G01 X183.5 Y157.5 F600
G01 X182.5 Y160.0 F600
G01 X181.5 Y161.0 F600
G01 X181.0 Y162.0 F600
G01 X181.0 Y163.0 F600
G01 X182.0 Y164.0 F600
G01 X184.0 Y165.5 F600
G01 X185.5 Y166.0 F600
G01 X186.0 Y167.5 F600
G01 X184.0 Y169.5 F600
G01 X183.0 Y171.5 F600
G01 X181.5 Y172.0 F600
G01 X180.5 Y171.5 F600
G01 X178.5 Y169.5 F600
G01 X177.5 Y169.0 F600
G01 X175.5 Y169.5 F600
G01 X172.0 Y173.5 F600
G01 X172.0 Y174.5 F600
G01 X176.0 Y179.0 F600
G01 X174.0 Y181.0 F600
G01 X171.0 Y183.5 F600
G01 X170.0 Y182.5 F600
G01 X169.0 Y180.5 F600
G01 X166.5 Y178.5 F600
G01 X165.0 Y180.0 F600
G01 X162.5 Y181.5 F600
G01 X161.0 Y182.5 F600
G01 X161.0 Y183.5 F600
G01 X162.0 Y185.5 F600
G01 X163.0 Y186.5 F600
G01 X164.0 Y188.5 F600
G01 X163.0 Y189.5 F600
G01 X161.5 Y190.0 F600
G01 X160.5 Y191.0 F600
G01 X159.5 Y191.5 F600
G01 X158.5 Y192.0 F600
G01 X157.5 Y191.0 F600
G01 X156.5 Y188.5 F600
G01 X155.5 Y187.0 F600
G01 X154.5 Y186.0 F600
G01 X152.5 Y187.5 F600
G01 X151.5 Y187.5 F600
G01 X149.5 Y188.5 F600
G01 X148.0 Y189.0 F600
G01 X148.0 Y190.5 F600
G01 X149.5 Y193.0 F600
G01 X149.5 Y194.0 F600
G01 X150.0 Y195.0 F600
G01 X149.0 Y196.0 F600
G01 X148.0 Y196.0 F600
G01 X146.5 Y197.0 F600
G01 X145.0 Y197.5 F600
G01 X143.0 Y197.0 F600
G01 X143.0 Y195.5 F600
G01 X142.5 Y193.5 F600
G01 X141.5 Y191.5 F600
G01 X140.0 Y191.5 F600
G01 X138.0 Y192.0 F600
G01 X136.0 Y192.5 F600
G01 X134.5 Y193.0 F600
G01 X135.0 Y196.5 F600
G01 X134.5 Y199.5 F600
G01 X131.5 Y200.0 F600
G01 X128.0 Y199.5 F600
G01 X127.5 Y193.5 F600
G01 X120.0 Y193.5 F600
G01 X120.0 Y199.0 F600
G01 X119.0 Y200.0 F600
G01 X117.5 Y200.0 F600
G01 X113.0 Y199.0 F600
G01 X113.0 Y196.5 F600
G01 X113.5 Y192.5 F600
G01 X112.0 Y192.5 F600
G01 X109.0 Y191.5 F600
G01 X106.0 Y191.5 F600
G01 X105.5 Y192.5 F600
G01 X105.5 Y194.0 F600
G01 X105.0 Y196.0 F600
G01 X104.5 Y197.0 F600
G01 X103.0 Y197.5 F600
G01 X101.5 Y197.0 F600
G01 X100.0 Y196.0 F600
G01 X98.0 Y195.5 F600
G01 X98.0 Y194.0 F600
G01 X99.0 Y192.5 F600
G01 X99.0 Y191.5 F600
G01 X100.0 Y190.0 F600
G01 X100.0 Y189.0 F600
G01 X99.0 Y188.5 F600
G01 X97.0 Y187.5 F600
G01 X96.0 Y187.5 F600
G01 X94.5 Y186.5 F600
G01 X93.5 Y186.0 F600
G01 X92.5 Y187.0 F600
G01 X91.5 Y188.5 F600
G01 X91.0 Y189.5 F600
G01 X91.0 Y190.5 F600
G01 X89.5 Y192.0 F600
G01 X88.5 Y191.5 F600
G01 X87.5 Y190.5 F600
G01 X86.0 Y189.5 F600
G01 X85.0 Y189.5 F600
G01 X84.0 Y188.5 F600
G01 X84.0 Y187.5 F600
G01 X85.5 Y186.0 F600
G01 X86.5 Y184.5 F600
G01 X87.0 Y183.5 F600
G01 X87.0 Y182.5 F600
G01 X86.0 Y181.5 F600
G01 X84.0 Y180.0 F600
G01 X82.0 Y178.5 F600
G01 X81.0 Y178.5 F600
G01 X79.5 Y180.0 F600
G01 X77.5 Y183.0 F600
G01 X76.5 Y183.5 F600
G01 X75.0 Y181.5 F600
G01 X72.0 Y178.5 F600
G01 X76.0 Y174.5 F600
G01 X76.0 Y173.5 F600
G01 X75.0 Y172.0 F600
G01 X71.0 Y168.5 F600
G01 X70.0 Y169.5 F600
G01 X68.0 Y171.0 F600
G01 X66.5 Y172.0 F600
G01 X65.0 Y171.5 F600
G01 X64.0 Y170.0 F600
G01 X63.0 Y168.5 F600
G01 X62.5 Y166.0 F600
G01 X64.0 Y165.0 F600
G01 X66.5 Y163.5 F600
G01 X67.0 Y162.0 F600
G01 X66.5 Y161.0 F600
G01 X65.5 Y160.0 F600
G01 X64.5 Y157.5 F600
G01 X64.0 Y156.5 F600
G01 X63.0 Y156.5 F600
G01 X61.5 Y157.5 F600
G01 X60.5 Y157.5 F600
G01 X59.5 Y158.0 F600
G01 X58.5 Y159.0 F600
G01 X57.0 Y158.5 F600
G01 X57.0 Y157.5 F600
G01 X55.0 Y154.0 F600
G01 X55.0 Y153.0 F600
G01 X56.0 Y152.0 F600
G01 X57.5 Y151.5 F600
G01 X58.5 Y151.5 F600
G01 X60.0 Y151.0 F600
G01 X61.0 Y150.5 F600
G01 X61.0 Y149.5 F600
G01 X60.5 Y148.0 F600
G01 X60.0 Y146.5 F600
G01 X59.5 Y144.5 F600
G01 X59.0 Y143.5 F600
G01 X57.5 Y143.5 F600
G01 X56.0 Y143.5 F600
G01 X53.5 Y144.5 F600
G01 X52.0 Y144.0 F600
G01 X51.5 Y142.5 F600
G01 X51.0 Y139.5 F600
G01 X51.5 Y137.5 F600
G01 X53.5 Y137.5 F600
G01 X56.5 Y137.0 F600
G01 X57.5 Y136.5 F600
G01 X57.5 Y134.5 F600
G01 X56.5 Y129.0 F600
G01 X49.5 Y128.5 F600
G01 X49.5 Y123.0 F600
G01 X50.5 Y122.0 F600
G01 X51.5 Y122.0 F600
G01 X57.0 Y122.5 F600
G01 X57.5 Y116.5 F600
G01 X57.0 Y115.0 F600
G01 X55.5 Y115.0 F600
G01 X53.5 Y114.5 F600
G01 X51.0 Y113.5 F600
G01 X51.0 Y112.0 F600
G01 X51.5 Y109.0 F600
G01 X52.5 Y107.0 F600
G01 X54.0 Y107.0 F600
G01 X56.5 Y108.0 F600
G01 X57.5 Y108.0 F600
G01 X59.0 Y108.0 F600
G01 X59.5 Y107.0 F600
G01 X59.5 Y105.5 F600
G01 X60.0 Y104.0 F600
G01 X61.0 Y102.5 F600
G01 X61.0 Y101.0 F600
G01 X60.0 Y100.5 F600
G01 X59.0 Y100.0 F600
G01 X57.5 Y99.5 F600
G01 X56.5 Y99.5 F600
G01 X55.5 Y99.0 F600
G01 X55.0 Y97.5 F600
G01 X55.5 Y96.5 F600
G01 X56.5 Y95.5 F600
G01 X57.0 Y94.5 F600
G01 X57.0 Y93.5 F600
G01 X59.0 Y93.0 F600
G01 X63.0 Y95.0 F600
G01 X64.5 Y94.5 F600
G01 X65.5 Y92.0 F600
G01 X66.5 Y91.0 F600
G01 X67.0 Y89.5 F600
G01 X67.5 Y88.5 F600
G01 X66.5 Y87.5 F600
G01 X64.5 Y86.5 F600
G01 X63.0 Y85.5 F600
G01 X62.5 Y84.0 F600
G01 X64.0 Y82.0 F600
G01 X65.0 Y80.5 F600
G01 X66.0 Y79.5 F600
G01 X67.0 Y79.5 F600
G01 X69.5 Y82.0 F600
G01 X71.0 Y83.0 F600
G01 X72.0 Y83.0 F600
G01 X73.5 Y81.5 F600
G01 X76.5 Y78.0 F600
G01 X76.5 Y77.0 F600
G01 X75.5 Y76.0 F600
G01 X72.5 Y72.5 F600
G01 X76.0 Y69.0 F600
G01 X77.5 Y68.5 F600
G01 X78.5 Y69.5 F600
G01 X80.5 Y72.5 F600
G01 X82.0 Y73.0 F600
G01 X83.0 Y72.5 F600
G01 X85.0 Y71.0 F600
G01 X87.0 Y69.5 F600
G01 X87.5 Y68.0 F600
G01 X86.5 Y67.0 F600
G01 X85.5 Y65.5 F600
G01 X85.0 Y64.0 F600
G01 X84.5 Y63.0 F600
G01 X85.5 Y62.0 F600
G01 X88.0 Y61.0 F600
G01 X90.5 Y60.0 F600
G01 X92.0 Y63.5 F600
G01 X93.0 Y65.0 F600
G01 X94.5 Y65.0 F600
G01 X98.5 Y63.0 F600
G01 X99.5 Y63.0 F600
G01 X100.5 Y62.0 F600
G01 X100.0 Y60.5 F600
G01 X99.5 Y59.0 F600
G01 X98.5 Y57.5 F600
G01 X99.0 Y55.5 F600
G01 X100.5 Y55.5 F600
G01 X102.0 Y55.0 F600
G01 X103.5 Y54.0 F600
G01 X105.0 Y54.5 F600
G01 X105.5 Y55.5 F600
G01 X106.0 Y57.5 F600
G01 X106.0 Y59.0 F600
G01 X106.5 Y60.0 F600
G01 X108.5 Y60.0 F600
G01 X111.0 Y59.5 F600
G01 X114.0 Y58.5 F600
G01 X114.0 Y56.5 F600
G01 X114.0 Y51.5 F600
G01 X118.5 Y51.0
G00 Z5
G00 X131.0 Y181.0
G01 Z-1 F200
G01 X131.0 Y181.0 F600
G01 X130.0 Y182.5 F600
G01 X129.5 Y181.5 F600
G01 X122.0 Y181.5 F600
G01 X122.0 Y182.5 F600
G01 X123.5 Y183.0 F600
G01 X123.0 Y186.0 F600
G01 X124.0 Y188.0 F600
G01 X124.5 Y187.0 F600
G01 X124.5 Y186.0 F600
G01 X124.0 Y183.5 F600
G01 X125.0 Y182.5 F600
G01 X126.5 Y183.0 F600
G01 X126.5 Y187.5 F600
G01 X129.5 Y187.5 F600
G01 X129.5 Y186.5 F600
G01 X127.5 Y186.0 F600
G01 X128.0 Y184.5 F600
G01 X129.0 Y184.0 F600
G01 X127.0 Y183.0 F600
G01 X128.0 Y182.0 F600
G01 X129.5 Y182.0 F600
G01 X130.5 Y183.0 F600
G01 X130.0 Y184.0 F600
G01 X130.5 Y186.0 F600
G01 X131.5 Y187.0 F600
G01 X134.0 Y186.5 F600
G01 X133.5 Y185.0 F600
G01 X132.5 Y186.5 F600
G01 X131.5 Y185.5 F600
G01 X131.0 Y184.0 F600
G01 X131.0 Y182.5 F600
G01 X132.0 Y181.5 F600
G01 X133.5 Y182.5 F600
G01 X133.0 Y181.0 F600
G01 X131.0 Y181.0
G00 Z5
G00 X116.5 Y181.5
G01 Z-1 F200
G01 X116.5 Y181.5 F600
G01 X116.0 Y185.5 F600
G01 X116.5 Y187.5 F600
G01 X117.5 Y184.5 F600
G01 X119.0 Y185.0 F600
G01 X119.5 Y184.0 F600
G01 X118.0 Y184.0 F600
G01 X117.0 Y183.0 F600
G01 X118.0 Y182.0 F600
G01 X120.0 Y181.5 F600
G01 X119.0 Y181.0 F600
G01 X116.5 Y181.5
G00 Z5
G00 X112.0 Y181.0
G01 Z-1 F200
G01 X112.0 Y181.0 F600
G01 X111.5 Y182.0 F600
G01 X112.0 Y186.5 F600
G01 X114.5 Y186.5 F600
G01 X115.0 Y185.5 F600
G01 X115.0 Y183.0 F600
G01 X115.0 Y181.0 F600
G01 X112.0 Y181.0
G00 Z5
G00 X114.5 Y182.0
G01 Z-1 F200
G01 X114.5 Y182.0 F600
G01 X114.5 Y184.5 F600
G01 X114.0 Y185.5 F600
G01 X113.0 Y186.0 F600
G01 X112.5 Y184.0 F600
G01 X112.5 Y182.5 F600
G01 X114.5 Y182.0
G00 Z5
G00 X137.0 Y180.0
G01 Z-1 F200
G01 X137.0 Y180.0 F600
G01 X137.0 Y181.0 F600
G01 X137.5 Y182.0 F600
G01 X135.5 Y182.5 F600
G01 X134.5 Y180.5 F600
G01 X134.5 Y182.5 F600
G01 X135.5 Y184.5 F600
G01 X135.5 Y186.5 F600
G01 X136.5 Y186.5 F600
G01 X136.5 Y185.5 F600
G01 X136.0 Y184.0 F600
G01 X137.0 Y183.0 F600
G01 X138.0 Y184.0 F600
G01 X138.0 Y186.0 F600
G01 X139.0 Y186.0 F600
G01 X139.0 Y185.0 F600
G01 X138.0 Y182.5 F600
G01 X138.0 Y180.0 F600
G01 X137.0 Y180.0
G00 Z5
G00 X142.0 Y178.5
G01 Z-1 F200
G01 X142.0 Y178.5 F600
G01 X142.0 Y180.0 F600
G01 X142.5 Y181.0 F600
G01 X142.0 Y182.5 F600
G01 X140.5 Y181.0 F600
G01 X140.0 Y179.5 F600
G01 X139.0 Y179.5 F600
G01 X139.0 Y180.5 F600
G01 X140.0 Y182.5 F600
G01 X141.0 Y185.5 F600
G01 X141.0 Y184.0 F600
G01 X140.5 Y183.0 F600
G01 X141.5 Y182.0 F600
G01 X142.0 Y183.5 F600
G01 X143.0 Y184.5 F600
G01 X144.0 Y184.5 F600
G01 X143.5 Y183.5 F600
G01 X143.0 Y182.5 F600
G01 X143.0 Y181.0 F600
G01 X142.0 Y178.5
G00 Z5
G00 X144.5 Y177.5
G01 Z-1 F200
G01 X144.5 Y177.5 F600
G01 X143.5 Y178.5 F600
G01 X143.5 Y179.5 F600
G01 X144.0 Y181.0 F600
G01 X145.0 Y183.0 F600
G01 X147.0 Y183.5 F600
G01 X148.0 Y183.0 F600
G01 X148.0 Y180.5 F600
G01 X147.0 Y178.5 F600
G01 X146.0 Y177.5 F600
G01 X144.5 Y177.5
G00 Z5
G00 X145.5 Y178.0
G01 Z-1 F200
G01 X145.5 Y178.0 F600
G01 X146.5 Y179.0 F600
G01 X147.0 Y180.0 F600
G01 X147.0 Y181.0 F600
G01 X147.5 Y182.0 F600
G01 X146.5 Y183.0 F600
G01 X145.0 Y181.5 F600
G01 X144.5 Y180.0 F600
G01 X144.5 Y179.0 F600
G01 X145.5 Y178.0
G00 Z5
G00 X148.0 Y176.0
G01 Z-1 F200
G01 X148.0 Y176.0 F600
G01 X147.5 Y177.5 F600
G01 X148.5 Y178.5 F600
G01 X149.5 Y180.5 F600
G01 X151.0 Y181.5 F600
G01 X152.5 Y181.0 F600
G01 X152.5 Y180.0 F600
G01 X150.5 Y180.5 F600
G01 X149.5 Y179.5 F600
G01 X149.5 Y178.5 F600
G01 X148.5 Y177.0 F600
G01 X148.0 Y176.0
G00 Z5
G00 X160.5 Y169.5
G01 Z-1 F200
G01 X160.5 Y169.5 F600
G01 X160.0 Y171.0 F600
G01 X159.0 Y170.0 F600
G01 X158.0 Y170.0 F600
G01 X157.0 Y171.5 F600
G01 X155.5 Y171.5 F600
G01 X155.5 Y173.5 F600
G01 X155.0 Y175.0 F600
G01 X153.5 Y173.5 F600
G01 X152.5 Y173.5 F600
G01 X151.0 Y175.0 F600
G01 X151.0 Y176.0 F600
G01 X152.0 Y178.0 F600
G01 X153.5 Y179.5 F600
G01 X156.0 Y179.0 F600
G01 X156.0 Y177.0 F600
G01 X155.5 Y176.0 F600
G01 X155.5 Y174.5 F600
G01 X157.0 Y176.0 F600
G01 X157.5 Y177.0 F600
G01 X158.5 Y177.5 F600
G01 X159.5 Y177.0 F600
G01 X160.0 Y176.0 F600
G01 X161.0 Y175.5 F600
G01 X160.0 Y174.0 F600
G01 X158.0 Y174.0 F600
G01 X159.0 Y174.5 F600
G01 X159.0 Y176.0 F600
G01 X158.0 Y176.0 F600
G01 X156.5 Y174.5 F600
G01 X156.0 Y173.5 F600
G01 X156.5 Y172.0 F600
G01 X157.5 Y172.5 F600
G01 X159.5 Y171.5 F600
G01 X161.5 Y173.0 F600
G01 X162.5 Y174.0 F600
G01 X163.5 Y174.0 F600
G01 X163.5 Y173.0 F600
G01 X161.5 Y171.0 F600
G01 X161.0 Y168.0 F600
G01 X160.5 Y169.5
G00 Z5
G00 X153.0 Y174.5
G01 Z-1 F200
G01 X153.0 Y174.5 F600
G01 X155.0 Y176.5 F600
G01 X155.5 Y178.0 F600
G01 X153.5 Y178.5 F600
G01 X152.5 Y177.0 F600
G01 X152.0 Y176.0 F600
G01 X153.0 Y174.5
G00 Z5
G00 X87.0 Y168.0
G01 Z-1 F200
G01 X87.0 Y168.0 F600
G01 X86.0 Y169.0 F600
G01 X86.5 Y171.5 F600
G01 X85.5 Y173.0 F600
G01 X84.5 Y172.0 F600
G01 X84.0 Y171.0 F600
G01 X83.5 Y172.0 F600
G01 X84.0 Y173.0 F600
G01 X85.5 Y174.0 F600
G01 X86.5 Y174.0 F600
G01 X87.5 Y173.0 F600
G01 X87.5 Y171.5 F600
G01 X87.0 Y170.5 F600
G01 X87.0 Y169.0 F600
G01 X88.5 Y169.5 F600
G01 X88.5 Y170.5 F600
G01 X89.5 Y170.5 F600
G01 X90.5 Y172.0 F600
G01 X89.5 Y173.0 F600
G01 X88.0 Y175.0 F600
G01 X88.5 Y176.5 F600
G01 X89.5 Y175.5 F600
G01 X90.5 Y173.5 F600
G01 X91.5 Y172.5 F600
G01 X93.0 Y173.0 F600
G01 X93.0 Y174.0 F600
G01 X92.0 Y175.0 F600
G01 X91.0 Y176.5 F600
G01 X90.5 Y178.0 F600
G01 X92.0 Y177.5 F600
G01 X93.0 Y176.0 F600
G01 X93.5 Y174.5 F600
G01 X94.5 Y173.5 F600
G01 X95.5 Y174.5 F600
G01 X95.5 Y176.0 F600
G01 X94.5 Y177.5 F600
G01 X93.5 Y178.5 F600
G01 X94.0 Y180.0 F600
G01 X95.0 Y179.0 F600
G01 X95.0 Y178.0 F600
G01 X95.5 Y177.0 F600
G01 X97.5 Y175.5 F600
G01 X98.5 Y176.5 F600
G01 X98.0 Y177.5 F600
G01 X97.0 Y179.5 F600
G01 X96.5 Y180.5 F600
G01 X97.0 Y181.5 F600
G01 X98.0 Y182.0 F600
G01 X99.5 Y182.0 F600
G01 X100.5 Y181.0 F600
G01 X100.5 Y180.0 F600
G01 X101.0 Y179.0 F600
G01 X102.5 Y178.0 F600
G01 X103.5 Y179.0 F600
G01 X103.0 Y180.5 F600
G01 X102.0 Y182.5 F600
G01 X101.5 Y183.5 F600
G01 X102.5 Y184.0 F600
G01 X103.0 Y182.0 F600
G01 X103.5 Y180.5 F600
G01 X104.0 Y179.5 F600
G01 X106.0 Y179.5 F600
G01 X106.0 Y181.0 F600
G01 X105.0 Y183.5 F600
G01 X105.5 Y185.0 F600
G01 X107.0 Y185.5 F600
G01 X108.0 Y185.5 F600
G01 X108.0 Y184.5 F600
G01 X107.0 Y184.5 F600
G01 X106.5 Y182.5 F600
G01 X109.0 Y182.5 F600
G01 X108.0 Y182.0 F600
G01 X107.5 Y180.0 F600
G01 X109.5 Y180.5 F600
G01 X109.5 Y179.5 F600
G01 X108.5 Y179.5 F600
G01 X106.0 Y179.0 F600
G01 X105.0 Y178.0 F600
G01 X103.5 Y177.5 F600
G01 X102.0 Y177.0 F600
G01 X101.0 Y177.0 F600
G01 X100.5 Y178.0 F600
G01 X100.0 Y179.5 F600
G01 X99.5 Y180.5 F600
G01 X98.5 Y181.5 F600
G01 X98.0 Y179.5 F600
G01 X99.5 Y176.5 F600
G01 X99.5 Y175.5 F600
G01 X97.5 Y175.0 F600
G01 X96.5 Y174.0 F600
G01 X94.0 Y173.0 F600
G01 X92.0 Y171.5 F600
G01 X91.0 Y170.5 F600
G01 X89.0 Y169.0 F600
G01 X88.0 Y168.0 F600
G01 X87.0 Y168.0
G00 Z5
G00 X165.0 Y164.0
G01 Z-1 F200
G01 X165.0 Y164.0 F600
G01 X163.0 Y165.5 F600
G01 X163.0 Y167.0 F600
G01 X166.0 Y170.0 F600
G01 X167.5 Y170.5 F600
G01 X167.5 Y169.5 F600
G01 X166.5 Y167.0 F600
G01 X168.0 Y167.5 F600
G01 X169.5 Y168.5 F600
G01 X169.5 Y167.5 F600
G01 X167.5 Y166.5 F600
G01 X166.5 Y165.5 F600
G01 X166.0 Y164.5 F600
G01 X165.0 Y164.0
G00 Z5
G00 X166.0 Y165.5
G01 Z-1 F200
G01 X166.0 Y165.5 F600
G01 X166.5 Y166.5 F600
G01 X165.0 Y167.5 F600
G01 X164.0 Y166.0 F600
G01 X166.0 Y165.5
G00 Z5
G00 X81.5 Y163.5
G01 Z-1 F200
G01 X81.5 Y163.5 F600
G01 X80.5 Y165.0 F600
G01 X78.0 Y167.0 F600
G01 X79.0 Y167.5 F600
G01 X82.0 Y164.5 F600
G01 X83.0 Y164.0 F600
G01 X83.5 Y165.0 F600
G01 X80.0 Y168.0 F600
G01 X79.5 Y169.0 F600
G01 X80.5 Y169.0 F600
G01 X82.5 Y167.0 F600
G01 X83.0 Y168.5 F600
G01 X82.0 Y169.5 F600
G01 X81.5 Y170.5 F600
G01 X83.0 Y171.0 F600
G01 X86.0 Y166.5 F600
G01 X83.0 Y167.5 F600
G01 X84.5 Y166.0 F600
G01 X84.0 Y164.5 F600
G01 X83.0 Y163.0 F600
G01 X81.5 Y163.5
G00 Z5
G00 X78.0 Y158.0
G01 Z-1 F200
G01 X78.0 Y158.0 F600
G01 X77.0 Y159.0 F600
G01 X74.5 Y160.5 F600
G01 X74.0 Y162.0 F600
G01 X75.0 Y161.0 F600
G01 X76.5 Y160.0 F600
G01 X77.0 Y161.0 F600
G01 X76.0 Y162.0 F600
G01 X75.5 Y163.0 F600
G01 X76.0 Y164.5 F600
G01 X77.5 Y163.0 F600
G01 X80.0 Y161.5 F600
G01 X80.5 Y160.0 F600
G01 X78.5 Y161.5 F600
G01 X77.0 Y161.0 F600
G01 X79.0 Y159.0 F600
G01 X79.0 Y158.0 F600
G01 X78.0 Y158.0
G00 Z5
G00 X169.5 Y158.0
G01 Z-1 F200
G01 X169.5 Y158.0 F600
G01 X169.5 Y160.0 F600
G01 X171.0 Y161.5 F600
G01 X170.0 Y162.0 F600
G01 X169.0 Y161.0 F600
G01 X167.5 Y161.0 F600
G01 X166.5 Y162.0 F600
G01 X166.5 Y163.5 F600
G01 X168.5 Y165.5 F600
G01 X170.0 Y166.5 F600
G01 X171.0 Y166.5 F600
G01 X172.0 Y165.5 F600
G01 X172.0 Y163.5 F600
G01 X170.5 Y162.0 F600
G01 X171.5 Y161.5 F600
G01 X172.5 Y162.5 F600
G01 X174.0 Y162.5 F600
G01 X175.0 Y161.5 F600
G01 X175.0 Y160.0 F600
G01 X173.0 Y158.0 F600
G01 X172.0 Y157.5 F600
G01 X169.5 Y158.0
G00 Z5
G00 X167.0 Y162.5
G01 Z-1 F200
G01 X167.0 Y162.5 F600
G01 X169.0 Y162.0 F600
G01 X171.5 Y164.5 F600
G01 X170.0 Y165.5 F600
G01 X168.5 Y164.5 F600
G01 X167.5 Y163.5 F600
G01 X167.0 Y162.5
G00 Z5
G00 X171.5 Y158.0
G01 Z-1 F200
G01 X171.5 Y158.0 F600
G01 X173.0 Y159.0 F600
G01 X174.0 Y160.0 F600
G01 X173.5 Y161.5 F600
G01 X172.5 Y161.5 F600
G01 X171.0 Y160.5 F600
G01 X170.0 Y159.0 F600
G01 X171.5 Y158.0
G00 Z5
G00 X75.5 Y155.0
G01 Z-1 F200
G01 X75.5 Y155.0 F600
G01 X74.0 Y155.5 F600
G01 X72.0 Y156.5 F600
G01 X71.0 Y156.5 F600
G01 X71.0 Y157.5 F600
G01 X72.0 Y157.0 F600
G01 X73.5 Y158.5 F600
G01 X73.0 Y160.5 F600
G01 X73.5 Y159.5 F600
G01 X77.0 Y156.5 F600
G01 X77.0 Y155.0 F600
G01 X75.5 Y155.0
G00 Z5
G00 X173.0 Y153.5
G01 Z-1 F200
G01 X173.0 Y153.5 F600
G01 X172.0 Y154.5 F600
G01 X172.0 Y156.5 F600
G01 X174.5 Y157.5 F600
G01 X177.0 Y158.0 F600
G01 X175.5 Y157.5 F600
G01 X176.0 Y155.5 F600
G01 X177.0 Y156.5 F600
G01 X178.0 Y156.5 F600
G01 X178.0 Y155.5 F600
G01 X177.0 Y155.5 F600
G01 X175.5 Y155.0 F600
G01 X174.0 Y153.5 F600
G01 X173.0 Y153.5
G00 Z5
G00 X173.0 Y154.5
G01 Z-1 F200
G01 X173.0 Y154.5 F600
G01 X174.0 Y154.5 F600
G01 X175.0 Y155.5 F600
G01 X173.5 Y156.5 F600
G01 X172.5 Y155.5 F600
G01 X173.0 Y154.5
G00 Z5
G00 X75.0 Y152.0
G01 Z-1 F200
G01 X75.0 Y152.0 F600
G01 X74.0 Y152.5 F600
G01 X73.0 Y153.5 F600
G01 X70.5 Y154.5 F600
G01 X69.5 Y155.5 F600
G01 X71.0 Y155.5 F600
G01 X72.0 Y154.5 F600
G01 X74.0 Y153.5 F600
G01 X75.0 Y152.0
G00 Z5
G00 X177.5 Y141.5
G01 Z-1 F200
G01 X177.5 Y141.5 F600
G01 X177.5 Y143.5 F600
G01 X177.0 Y145.0 F600
G01 X176.0 Y146.5 F600
G01 X175.5 Y147.5 F600
G01 X176.0 Y148.5 F600
G01 X175.0 Y149.0 F600
G01 X175.0 Y150.0 F600
G01 X176.0 Y151.5 F600
G01 X174.5 Y151.5 F600
G01 X173.5 Y151.5 F600
G01 X174.0 Y152.5 F600
G01 X175.0 Y152.5 F600
G01 X177.0 Y153.5 F600
G01 X178.0 Y154.5 F600
G01 X179.5 Y154.0 F600
G01 X178.0 Y152.0 F600
G01 X180.5 Y151.5 F600
G01 X176.5 Y151.0 F600
G01 X176.0 Y148.5 F600
G01 X177.0 Y148.5 F600
G01 X178.5 Y149.0 F600
G01 X180.0 Y150.0 F600
G01 X181.5 Y149.5 F600
G01 X182.0 Y148.5 F600
G01 X182.0 Y147.0 F600
G01 X181.0 Y148.0 F600
G01 X180.0 Y149.0 F600
G01 X179.0 Y146.5 F600
G01 X177.0 Y147.5 F600
G01 X177.5 Y145.0 F600
G01 X179.5 Y145.0 F600
G01 X181.5 Y146.0 F600
G01 X183.0 Y146.0 F600
G01 X183.0 Y145.0 F600
G01 X183.5 Y143.0 F600
G01 X182.5 Y143.5 F600
G01 X182.0 Y145.0 F600
G01 X180.5 Y144.5 F600
G01 X180.5 Y143.5 F600
G01 X180.5 Y142.0 F600
G01 X179.5 Y144.0 F600
G01 X178.5 Y142.5 F600
G01 X178.5 Y141.5 F600
G01 X177.5 Y141.5
G00 Z5
G00 X69.5 Y142.0
G01 Z-1 F200
G01 X69.5 Y142.0 F600
G01 X68.5 Y142.5 F600
G01 X67.0 Y143.0 F600
G01 X65.0 Y143.5 F600
G01 X65.0 Y144.5 F600
G01 X66.0 Y144.0 F600
G01 X67.0 Y144.0 F600
G01 X68.5 Y143.0 F600
G01 X71.0 Y143.5 F600
G01 X70.0 Y144.0 F600
G01 X68.5 Y145.0 F600
G01 X67.5 Y145.0 F600
G01 X65.5 Y146.5 F600
G01 X66.5 Y146.5 F600
G01 X67.5 Y145.5 F600
G01 X68.5 Y147.0 F600
G01 X66.5 Y148.0 F600
G01 X68.0 Y148.5 F600
G01 X69.0 Y148.5 F600
G01 X70.5 Y147.5 F600
G01 X72.5 Y148.0 F600
G01 X71.5 Y149.0 F600
G01 X70.5 Y149.5 F600
G01 X69.5 Y149.5 F600
G01 X68.5 Y150.0 F600
G01 X67.5 Y150.5 F600
G01 X68.0 Y151.5 F600
G01 X68.5 Y153.0 F600
G01 X71.0 Y153.0 F600
G01 X73.0 Y152.0 F600
G01 X74.0 Y151.0 F600
G01 X74.0 Y150.0 F600
G01 X73.5 Y149.0 F600
G01 X73.0 Y148.0 F600
G01 X72.0 Y147.5 F600
G01 X72.5 Y146.5 F600
G01 X71.5 Y146.5 F600
G01 X70.5 Y147.0 F600
G01 X69.0 Y146.5 F600
G01 X70.0 Y145.5 F600
G01 X71.5 Y145.0 F600
G01 X71.5 Y144.0 F600
G01 X70.5 Y143.0 F600
G01 X70.5 Y141.5 F600
G01 X69.5 Y142.0
G00 Z5
G00 X71.0 Y150.0
G01 Z-1 F200
G01 X71.0 Y150.0 F600
G01 X71.5 Y149.5 F600
G01 X73.0 Y150.5 F600
G01 X71.5 Y152.0 F600
G01 X70.5 Y152.0 F600
G01 X69.0 Y152.0 F600
G01 X69.5 Y150.5 F600
G01 X71.0 Y150.0
G00 Z5
G00 X179.0 Y118.0
G01 Z-1 F200
G01 X179.0 Y118.0 F600
G01 X179.0 Y119.0 F600
G01 X178.0 Y119.5 F600
G01 X177.5 Y120.5 F600
G01 X177.5 Y122.0 F600
G01 X178.0 Y123.0 F600
G01 X179.0 Y124.0 F600
G01 X179.0 Y125.5 F600
G01 X180.5 Y125.5 F600
G01 X181.5 Y123.5 F600
G01 X183.0 Y122.0 F600
G01 X184.0 Y122.0 F600
G01 X185.0 Y123.0 F600
G01 X186.0 Y123.5 F600
G01 X189.0 Y123.5 F600
G01 X190.0 Y124.0 F600
G01 X191.5 Y125.5 F600
G01 X190.5 Y126.0 F600
G01 X189.5 Y127.0 F600
G01 X187.5 Y125.0 F600
G01 X187.5 Y126.0 F600
G01 X188.5 Y126.5 F600
G01 X186.0 Y126.5 F600
G01 X185.0 Y126.5 F600
G01 X184.0 Y127.0 F600
G01 X182.5 Y126.0 F600
G01 X181.5 Y127.0 F600
G01 X177.0 Y127.0 F600
G01 X177.5 Y128.0 F600
G01 X178.5 Y128.0 F600
G01 X182.0 Y128.0 F600
G01 X183.0 Y128.0 F600
G01 X184.5 Y127.5 F600
G01 X190.0 Y128.0 F600
G01 X192.0 Y127.0 F600
G01 X192.0 Y125.5 F600
G01 X191.5 Y124.5 F600
G01 X190.5 Y123.5 F600
G01 X189.5 Y123.0 F600
G01 X186.5 Y123.0 F600
G01 X183.5 Y120.0 F600
G01 X182.0 Y118.5 F600
G01 X181.0 Y118.0 F600
G01 X179.0 Y118.0
G00 Z5
G00 X179.5 Y119.5
G01 Z-1 F200
G01 X179.5 Y119.5 F600
G01 X180.5 Y120.5 F600
G01 X182.0 Y120.0 F600
G01 X183.0 Y121.0 F600
G01 X181.5 Y123.0 F600
G01 X180.0 Y124.0 F600
G01 X179.0 Y123.0 F600
G01 X178.5 Y121.5 F600
G01 X178.5 Y120.5 F600
G01 X179.5 Y119.5
G00 Z5
G00 X67.5 Y118.0
G01 Z-1 F200
G01 X67.5 Y118.0 F600
G01 X67.0 Y118.5 F600
G01 X66.5 Y118.5 F600
G01 X65.5 Y119.5 F600
G01 X63.0 Y122.5 F600
G01 X62.0 Y123.0 F600
G01 X60.5 Y122.5 F600
G01 X59.0 Y123.0 F600
G01 X57.5 Y124.5 F600
G01 X56.5 Y125.5 F600
G01 X57.0 Y127.5 F600
G01 X58.5 Y128.0 F600
G01 X64.0 Y127.5 F600
G01 X65.0 Y127.5 F600
G01 X67.5 Y128.0 F600
G01 X68.5 Y128.0 F600
G01 X70.0 Y128.0 F600
G01 X71.5 Y127.0 F600
G01 X66.5 Y126.5 F600
G01 X65.0 Y126.5 F600
G01 X63.5 Y126.5 F600
G01 X62.5 Y126.5 F600
G01 X60.0 Y126.5 F600
G01 X61.0 Y126.0 F600
G01 X61.5 Y123.5 F600
G01 X62.5 Y123.5 F600
G01 X63.5 Y123.0 F600
G01 X64.5 Y122.0 F600
G01 X65.5 Y122.0 F600
G01 X67.0 Y123.5 F600
G01 X68.0 Y125.5 F600
G01 X70.0 Y125.5 F600
G01 X69.5 Y124.0 F600
G01 X70.5 Y123.0 F600
G01 X71.0 Y122.0 F600
G01 X71.0 Y120.5 F600
G01 X70.5 Y119.5 F600
G01 X69.0 Y118.0 F600
G01 X67.5 Y118.0
G00 Z5
G00 X59.0 Y123.5
G01 Z-1 F200
G01 X59.0 Y123.5 F600
G01 X61.0 Y124.5 F600
G01 X60.0 Y126.0 F600
G01 X58.5 Y127.0 F600
G01 X58.0 Y126.0 F600
G01 X57.0 Y125.5 F600
G01 X59.0 Y123.5
G00 Z5
G00 X69.0 Y119.5
G01 Z-1 F200
G01 X69.0 Y119.5 F600
G01 X70.0 Y120.5 F600
G01 X70.0 Y121.5 F600
G01 X69.5 Y123.0 F600
G01 X68.0 Y124.0 F600
G01 X67.0 Y123.0 F600
G01 X65.5 Y121.0 F600
G01 X67.0 Y120.0 F600
G01 X69.0 Y119.5
G00 Z5
G00 X168.0 Y82.5
G01 Z-1 F200
G01 X168.0 Y82.5 F600
G01 X170.0 Y85.0 F600
G01 X168.0 Y85.5 F600
G01 X168.0 Y84.0 F600
G01 X167.0 Y84.5 F600
G01 X167.0 Y85.5 F600
G01 X166.0 Y87.5 F600
G01 X166.5 Y90.0 F600
G01 X167.0 Y87.5 F600
G01 X169.0 Y87.0 F600
G01 X169.0 Y88.0 F600
G01 X168.5 Y89.0 F600
G01 X170.0 Y88.0 F600
G01 X170.0 Y90.0 F600
G01 X168.0 Y90.5 F600
G01 X168.0 Y91.5 F600
G01 X169.5 Y91.5 F600
G01 X171.0 Y92.0 F600
G01 X171.0 Y93.0 F600
G01 X170.0 Y95.5 F600
G01 X169.0 Y95.5 F600
G01 X169.5 Y97.0 F600
G01 X171.0 Y96.0 F600
G01 X172.0 Y97.0 F600
G01 X173.0 Y97.0 F600
G01 X174.0 Y96.5 F600
G01 X174.5 Y95.0 F600
G01 X173.5 Y94.5 F600
G01 X174.5 Y93.0 F600
G01 X175.5 Y94.5 F600
G01 X177.5 Y94.5 F600
G01 X178.0 Y96.0 F600
G01 X179.0 Y97.0 F600
G01 X179.5 Y98.0 F600
G01 X178.5 Y99.0 F600
G01 X177.5 Y98.0 F600
G01 X175.5 Y97.0 F600
G01 X174.5 Y98.0 F600
G01 X174.5 Y99.5 F600
G01 X175.0 Y100.5 F600
G01 X173.5 Y101.5 F600
G01 X175.5 Y103.0 F600
G01 X178.5 Y103.5 F600
G01 X179.5 Y102.5 F600
G01 X179.5 Y101.5 F600
G01 X180.5 Y100.0 F600
G01 X181.5 Y102.0 F600
G01 X181.5 Y103.5 F600
G01 X180.5 Y104.5 F600
G01 X179.5 Y105.0 F600
G01 X178.0 Y105.5 F600
G01 X176.0 Y106.0 F600
G01 X176.0 Y107.0 F600
G01 X177.5 Y107.0 F600
G01 X179.0 Y106.0 F600
G01 X180.5 Y105.5 F600
G01 X181.5 Y105.0 F600
G01 X183.0 Y106.0 F600
G01 X183.0 Y104.5 F600
G01 X183.5 Y103.5 F600
G01 X184.5 Y102.5 F600
G01 X184.0 Y100.0 F600
G01 X182.0 Y100.0 F600
G01 X180.5 Y99.5 F600
G01 X179.5 Y97.5 F600
G01 X179.5 Y96.5 F600
G01 X178.5 Y94.5 F600
G01 X177.5 Y93.0 F600
G01 X176.5 Y91.5 F600
G01 X175.5 Y90.5 F600
G01 X175.0 Y89.0 F600
G01 X173.5 Y87.0 F600
G01 X170.5 Y84.0 F600
G01 X169.0 Y81.5 F600
G01 X168.0 Y82.5
G00 Z5
G00 X183.5 Y101.5
G01 Z-1 F200
G01 X183.5 Y101.5 F600
G01 X183.5 Y102.5 F600
G01 X182.5 Y103.5 F600
G01 X181.5 Y102.0 F600
G01 X183.5 Y101.5
G00 Z5
G00 X176.5 Y101.0
G01 Z-1 F200
G01 X176.5 Y101.0 F600
G01 X177.0 Y100.5 F600
G01 X178.5 Y101.0 F600
G01 X178.0 Y102.5 F600
G01 X176.0 Y101.0 F600
G01 X176.5 Y101.0
G00 Z5
G00 X176.0 Y98.0
G01 Z-1 F200
G01 X176.0 Y98.0 F600
G01 X177.0 Y98.0 F600
G01 X178.0 Y99.0 F600
G01 X177.0 Y100.0 F600
G01 X176.0 Y100.0 F600
G01 X175.0 Y99.0 F600
G01 X176.0 Y98.0
G00 Z5
G00 X172.0 Y92.5
G01 Z-1 F200
G01 X172.0 Y92.5 F600
G01 X172.5 Y93.5 F600
G01 X173.5 Y95.0 F600
G01 X171.5 Y95.5 F600
G01 X172.0 Y92.5
G00 Z5
G00 X171.0 Y85.5
G01 Z-1 F200
G01 X171.0 Y85.5 F600
G01 X172.0 Y86.5 F600
G01 X173.5 Y88.5 F600
G01 X175.0 Y90.5 F600
G01 X176.0 Y92.0 F600
G01 X175.5 Y93.5 F600
G01 X174.5 Y92.5 F600
G01 X173.0 Y92.0 F600
G01 X171.5 Y91.0 F600
G01 X171.5 Y89.5 F600
G01 X171.5 Y88.5 F600
G01 X169.5 Y86.5 F600
G01 X171.0 Y85.5
G00 Z5
G00 X83.0 Y78.0
G01 Z-1 F200
G01 X83.0 Y78.0 F600
G01 X82.0 Y79.5 F600
G01 X78.0 Y83.5 F600
G01 X73.0 Y84.5 F600
G01 X72.5 Y86.0 F600
G01 X73.5 Y89.0 F600
G01 X72.0 Y90.5 F600
G01 X71.0 Y92.0 F600
G01 X70.5 Y93.5 F600
G01 X69.5 Y94.5 F600
G01 X66.5 Y100.5 F600
G01 X66.0 Y102.0 F600
G01 X66.0 Y103.0 F600
G01 X65.0 Y104.5 F600
G01 X65.0 Y105.5 F600
G01 X66.0 Y106.5 F600
G01 X67.0 Y104.5 F600
G01 X68.0 Y105.5 F600
G01 X68.5 Y106.5 F600
G01 X69.5 Y106.0 F600
G01 X70.0 Y105.0 F600
G01 X69.5 Y103.0 F600
G01 X70.5 Y103.0 F600
G01 X72.0 Y104.0 F600
G01 X73.0 Y104.0 F600
G01 X73.0 Y103.0 F600
G01 X72.0 Y102.5 F600
G01 X71.0 Y102.5 F600
G01 X69.5 Y101.5 F600
G01 X68.5 Y101.5 F600
G01 X67.5 Y100.0 F600
G01 X68.5 Y99.0 F600
G01 X69.5 Y99.0 F600
G01 X70.5 Y99.5 F600
G01 X71.5 Y100.5 F600
G01 X73.0 Y101.0 F600
G01 X74.5 Y101.0 F600
G01 X74.5 Y100.0 F600
G01 X73.5 Y100.0 F600
G01 X72.0 Y99.5 F600
G01 X70.0 Y98.5 F600
G01 X69.5 Y96.5 F600
G01 X70.0 Y95.0 F600
G01 X71.5 Y94.0 F600
G01 X72.0 Y96.0 F600
G01 X71.0 Y97.0 F600
G01 X77.0 Y96.5 F600
G01 X77.0 Y95.5 F600
G01 X75.0 Y96.0 F600
G01 X73.5 Y95.5 F600
G01 X73.5 Y94.5 F600
G01 X71.5 Y92.5 F600
G01 X73.0 Y91.0 F600
G01 X73.5 Y89.5 F600
G01 X75.5 Y90.0 F600
G01 X74.0 Y91.5 F600
G01 X74.0 Y92.5 F600
G01 X75.0 Y93.5 F600
G01 X79.0 Y93.5 F600
G01 X79.0 Y92.5 F600
G01 X76.0 Y92.5 F600
G01 X75.0 Y91.0 F600
G01 X77.0 Y89.5 F600
G01 X78.0 Y90.5 F600
G01 X79.5 Y91.5 F600
G01 X80.5 Y91.5 F600
G01 X80.5 Y90.5 F600
G01 X79.0 Y89.5 F600
G01 X76.5 Y88.0 F600
G01 X76.0 Y86.5 F600
G01 X77.5 Y85.5 F600
G01 X82.5 Y89.0 F600
G01 X82.5 Y88.0 F600
G01 X80.5 Y87.0 F600
G01 X78.5 Y83.5 F600
G01 X80.5 Y82.5 F600
G01 X81.5 Y83.5 F600
G01 X80.5 Y84.5 F600
G01 X82.5 Y85.5 F600
G01 X83.5 Y85.0 F600
G01 X85.5 Y83.5 F600
G01 X86.0 Y84.5 F600
G01 X87.0 Y83.0 F600
G01 X85.5 Y82.0 F600
G01 X84.0 Y78.0 F600
G01 X83.0 Y78.0
G00 Z5
G00 X67.0 Y102.0
G01 Z-1 F200
G01 X67.0 Y102.0 F600
G01 X68.0 Y102.0 F600
G01 X68.5 Y104.0 F600
G01 X67.5 Y104.0 F600
G01 X66.5 Y103.0 F600
G01 X67.0 Y102.0
G00 Z5
G00 X74.5 Y84.5
G01 Z-1 F200
G01 X74.5 Y84.5 F600
G01 X76.0 Y85.0 F600
G01 X75.5 Y86.5 F600
G01 X74.5 Y86.5 F600
G01 X73.5 Y85.5 F600
G01 X74.5 Y84.5
G00 Z5
G00 X82.5 Y80.0
G01 Z-1 F200
G01 X82.5 Y80.0 F600
G01 X84.0 Y81.5 F600
G01 X83.5 Y84.0 F600
G01 X82.0 Y83.5 F600
G01 X82.0 Y82.5 F600
G01 X81.0 Y81.0 F600
G01 X82.5 Y80.0
G00 Z5
G00 X120.0 Y74.5
G01 Z-1 F200
G01 X120.0 Y74.5 F600
G01 X116.0 Y75.0 F600
G01 X113.0 Y75.5 F600
G01 X111.0 Y76.0 F600
G01 X109.5 Y76.5 F600
G01 X108.0 Y77.0 F600
G01 X106.5 Y77.5 F600
G01 X105.0 Y78.0 F600
G01 X98.0 Y81.5 F600
G01 X96.5 Y82.5 F600
G01 X95.0 Y83.5 F600
G01 X93.5 Y84.5 F600
G01 X90.5 Y87.0 F600
G01 X85.5 Y92.0 F600
G01 X83.5 Y94.5 F600
G01 X82.0 Y96.5 F600
G01 X81.0 Y98.0 F600
G01 X80.0 Y99.5 F600
G01 X77.0 Y105.5 F600
G01 X77.0 Y106.5 F600
G01 X76.0 Y108.0 F600
G01 X75.5 Y109.5 F600
G01 X75.0 Y111.0 F600
G01 X74.5 Y113.0 F600
G01 X74.0 Y115.0 F600
G01 X73.5 Y117.5 F600
G01 X73.0 Y122.5 F600
G01 X73.0 Y129.5 F600
G01 X73.5 Y134.0 F600
G01 X74.0 Y136.5 F600
G01 X74.5 Y138.5 F600
G01 X75.0 Y140.5 F600
G01 X75.5 Y142.0 F600
G01 X76.0 Y143.5 F600
G01 X77.5 Y146.0 F600
G01 X77.5 Y147.0 F600
G01 X79.5 Y151.0 F600
G01 X80.5 Y152.0 F600
G01 X81.0 Y153.5 F600
G01 X82.0 Y155.0 F600
G01 X83.5 Y157.0 F600
G01 X85.5 Y159.5 F600
G01 X90.5 Y164.5 F600
G01 X93.5 Y167.0 F600
G01 X95.0 Y168.0 F600
G01 X96.5 Y169.0 F600
G01 X98.0 Y169.5 F600
G01 X99.0 Y170.5 F600
G01 X104.0 Y173.0 F600
G01 X105.5 Y173.5 F600
G01 X106.5 Y173.5 F600
G01 X108.0 Y174.5 F600
G01 X109.5 Y175.0 F600
G01 X111.5 Y175.5 F600
G01 X113.5 Y176.0 F600
G01 X116.0 Y176.5 F600
G01 X120.0 Y177.0 F600
G01 X128.5 Y177.0 F600
G01 X132.0 Y176.5 F600
G01 X135.0 Y176.0 F600
G01 X137.0 Y175.5 F600
G01 X139.0 Y175.0 F600
G01 X140.5 Y174.5 F600
G01 X142.0 Y173.5 F600
G01 X143.0 Y173.5 F600
G01 X144.5 Y173.0 F600
G01 X149.5 Y170.5 F600
G01 X150.5 Y169.5 F600
G01 X152.0 Y169.0 F600
G01 X154.0 Y167.5 F600
G01 X155.5 Y166.5 F600
G01 X158.5 Y164.0 F600
G01 X162.5 Y160.0 F600
G01 X165.0 Y157.0 F600
G01 X166.0 Y155.5 F600
G01 X167.0 Y154.0 F600
G01 X168.0 Y152.5 F600
G01 X169.0 Y151.0 F600
G01 X171.0 Y147.0 F600
G01 X171.0 Y146.0 F600
G01 X172.0 Y144.5 F600
G01 X172.0 Y143.5 F600
G01 X173.0 Y142.0 F600
G01 X173.5 Y140.0 F600
G01 X174.0 Y138.0 F600
G01 X174.5 Y136.0 F600
G01 X175.0 Y133.5 F600
G01 X175.5 Y127.0 F600
G01 X175.5 Y122.5 F600
G01 X175.0 Y118.0 F600
G01 X174.5 Y115.5 F600
G01 X174.0 Y113.0 F600
G01 X173.5 Y111.5 F600
G01 X173.0 Y109.5 F600
G01 X172.0 Y108.0 F600
G01 X172.0 Y107.0 F600
G01 X171.0 Y105.5 F600
G01 X171.0 Y104.5 F600
G01 X169.0 Y100.5 F600
G01 X168.0 Y99.5 F600
G01 X167.5 Y98.0 F600
G01 X166.0 Y96.0 F600
G01 X165.0 Y94.5 F600
G01 X163.0 Y92.0 F600
G01 X158.0 Y87.0 F600
G01 X155.5 Y85.0 F600
G01 X153.5 Y83.5 F600
G01 X152.0 Y82.5 F600
G01 X150.5 Y81.5 F600
G01 X143.5 Y78.0 F600
G01 X142.0 Y77.5 F600
G01 X140.5 Y77.0 F600
G01 X139.0 Y76.5 F600
G01 X137.5 Y76.0 F600
G01 X135.5 Y75.5 F600
G01 X132.5 Y75.0 F600
G01 X128.5 Y74.5 F600
G01 X120.0 Y74.5
G00 Z5
G00 X120.5 Y75.5
G01 Z-1 F200
G01 X120.5 Y75.5 F600
G01 X128.0 Y75.5 F600
G01 X132.0 Y76.0 F600
G01 X134.5 Y76.5 F600
G01 X136.5 Y77.0 F600
G01 X138.5 Y77.5 F600
G01 X140.0 Y78.0 F600
G01 X141.5 Y79.0 F600
G01 X142.5 Y79.0 F600
G01 X144.0 Y79.5 F600
G01 X149.0 Y82.0 F600
G01 X150.5 Y83.0 F600
G01 X152.0 Y84.0 F600
G01 X153.5 Y85.0 F600
G01 X156.0 Y87.0 F600
G01 X163.5 Y94.5 F600
G01 X165.0 Y96.5 F600
G01 X166.0 Y98.0 F600
G01 X167.0 Y99.5 F600
G01 X168.0 Y102.0 F600
G01 X169.0 Y103.0 F600
G01 X169.5 Y104.0 F600
G01 X169.5 Y105.0 F600
G01 X171.0 Y107.5 F600
G01 X171.5 Y109.0 F600
G01 X172.0 Y110.5 F600
G01 X172.5 Y112.0 F600
G01 X173.0 Y113.5 F600
G01 X173.5 Y115.5 F600
G01 X174.0 Y119.0 F600
G01 X174.0 Y132.5 F600
G01 X173.5 Y135.5 F600
G01 X173.0 Y138.0 F600
G01 X172.5 Y139.5 F600
G01 X172.0 Y141.0 F600
G01 X171.5 Y142.5 F600
G01 X171.0 Y144.0 F600
G01 X169.5 Y146.5 F600
G01 X169.5 Y147.5 F600
G01 X169.0 Y148.5 F600
G01 X168.0 Y149.5 F600
G01 X167.0 Y152.0 F600
G01 X165.5 Y153.5 F600
G01 X165.0 Y155.0 F600
G01 X163.0 Y157.5 F600
G01 X156.0 Y164.5 F600
G01 X154.0 Y166.0 F600
G01 X152.0 Y167.5 F600
G01 X150.5 Y168.5 F600
G01 X148.0 Y169.5 F600
G01 X147.0 Y170.5 F600
G01 X145.0 Y171.5 F600
G01 X144.0 Y171.5 F600
G01 X142.5 Y172.5 F600
G01 X141.5 Y172.5 F600
G01 X140.0 Y173.5 F600
G01 X138.0 Y174.0 F600
G01 X136.5 Y174.5 F600
G01 X134.5 Y175.0 F600
G01 X132.0 Y175.5 F600
G01 X126.0 Y176.0 F600
G01 X122.5 Y176.0 F600
G01 X116.5 Y175.5 F600
G01 X114.0 Y175.0 F600
G01 X112.0 Y174.5 F600
G01 X110.5 Y174.0 F600
G01 X108.5 Y173.5 F600
G01 X107.0 Y173.0 F600
G01 X104.5 Y171.5 F600
G01 X103.5 Y171.5 F600
G01 X101.5 Y170.5 F600
G01 X100.5 Y169.5 F600
G01 X99.5 Y169.5 F600
G01 X98.0 Y168.5 F600
G01 X96.5 Y167.5 F600
G01 X95.0 Y166.5 F600
G01 X93.0 Y165.0 F600
G01 X85.0 Y157.0 F600
G01 X83.5 Y155.0 F600
G01 X82.5 Y153.5 F600
G01 X81.5 Y152.0 F600
G01 X81.0 Y150.5 F600
G01 X80.0 Y149.5 F600
G01 X78.5 Y146.5 F600
G01 X78.5 Y145.5 F600
G01 X77.0 Y143.0 F600
G01 X77.0 Y141.5 F600
G01 X76.0 Y140.0 F600
G01 X75.5 Y138.0 F600
G01 X75.0 Y136.0 F600
G01 X74.5 Y133.0 F600
G01 X74.0 Y129.0 F600
G01 X74.0 Y122.5 F600
G01 X74.5 Y118.5 F600
G01 X75.0 Y115.5 F600
G01 X75.5 Y113.5 F600
G01 X76.0 Y111.5 F600
G01 X76.5 Y110.0 F600
G01 X77.0 Y108.5 F600
G01 X78.0 Y107.0 F600
G01 X78.0 Y106.0 F600
G01 X80.0 Y102.0 F600
G01 X81.0 Y101.0 F600
G01 X81.5 Y99.5 F600
G01 X82.5 Y98.0 F600
G01 X83.5 Y96.5 F600
G01 X85.0 Y94.5 F600
G01 X87.5 Y92.0 F600
G01 X90.0 Y89.5 F600
G01 X93.5 Y86.0 F600
G01 X95.0 Y85.0 F600
G01 X97.0 Y83.5 F600
G01 X98.5 Y83.0 F600
G01 X99.5 Y82.0 F600
G01 X104.5 Y79.5 F600
G01 X105.5 Y79.5 F600
G01 X107.0 Y78.5 F600
G01 X108.5 Y78.0 F600
G01 X110.0 Y77.5 F600
G01 X112.0 Y77.0 F600
G01 X114.0 Y76.5 F600
G01 X116.5 Y76.0 F600
G01 X120.5 Y75.5
G00 Z5
G00 X128.0 Y160.0
G01 Z-1 F200
G01 X128.0 Y160.0 F600
G01 X126.0 Y162.0 F600
G01 X125.5 Y163.0 F600
G01 X125.5 Y165.5 F600
G01 X126.5 Y167.5 F600
G01 X128.0 Y168.5 F600
G01 X129.5 Y169.0 F600
G01 X131.5 Y169.0 F600
G01 X133.0 Y170.5 F600
G01 X133.0 Y171.5 F600
G01 X133.5 Y169.5 F600
G01 X132.5 Y168.5 F600
G01 X131.5 Y168.5 F600
G01 X129.5 Y168.0 F600
G01 X128.5 Y167.5 F600
G01 X127.5 Y166.5 F600
G01 X127.0 Y165.5 F600
G01 X127.0 Y164.0 F600
G01 X128.0 Y163.0 F600
G01 X129.0 Y163.0 F600
G01 X131.5 Y163.0 F600
G01 X131.5 Y161.0 F600
G01 X130.5 Y160.0 F600
G01 X128.0 Y160.0
G00 Z5
G00 X116.0 Y160.5
G01 Z-1 F200
G01 X116.0 Y160.5 F600
G01 X115.5 Y161.5 F600
G01 X115.5 Y162.5 F600
G01 X116.5 Y163.5 F600
G01 X117.5 Y163.5 F600
G01 X120.0 Y163.5 F600
G01 X120.5 Y164.5 F600
G01 X120.0 Y166.0 F600
G01 X118.5 Y167.5 F600
G01 X117.5 Y168.0 F600
G01 X115.5 Y168.0 F600
G01 X113.5 Y170.0 F600
G01 X114.5 Y171.5 F600
G01 X115.0 Y169.5 F600
G01 X117.0 Y169.0 F600
G01 X119.0 Y168.5 F600
G01 X120.0 Y168.0 F600
G01 X121.5 Y166.5 F600
G01 X122.0 Y165.0 F600
G01 X122.0 Y163.5 F600
G01 X121.5 Y162.0 F600
G01 X119.5 Y160.0 F600
G01 X116.0 Y160.5
G00 Z5
G00 X139.0 Y157.0
G01 Z-1 F200
G01 X139.0 Y157.0 F600
G01 X137.0 Y158.0 F600
G01 X136.0 Y160.0 F600
G01 X136.0 Y162.5 F600
G01 X137.0 Y164.0 F600
G01 X138.0 Y165.0 F600
G01 X139.0 Y165.5 F600
G01 X144.0 Y165.5 F600
G01 X145.0 Y166.5 F600
G01 X145.5 Y167.5 F600
G01 X146.0 Y166.0 F600
G01 X145.5 Y165.0 F600
G01 X144.5 Y164.5 F600
G01 X142.0 Y165.0 F600
G01 X141.0 Y165.0 F600
G01 X139.0 Y164.0 F600
G01 X138.0 Y163.0 F600
G01 X138.5 Y160.5 F600
G01 X140.5 Y160.5 F600
G01 X141.5 Y159.5 F600
G01 X141.5 Y158.0 F600
G01 X140.5 Y157.0 F600
G01 X139.0 Y157.0
G00 Z5
G00 X107.0 Y157.0
G01 Z-1 F200
G01 X107.0 Y157.0 F600
G01 X106.0 Y158.0 F600
G01 X106.0 Y159.5 F600
G01 X107.0 Y160.0 F600
G01 X109.0 Y160.0 F600
G01 X110.0 Y161.0 F600
G01 X110.0 Y162.0 F600
G01 X109.5 Y163.0 F600
G01 X108.5 Y164.0 F600
G01 X107.5 Y164.5 F600
G01 X103.0 Y164.5 F600
G01 X102.0 Y165.0 F600
G01 X102.5 Y167.0 F600
G01 X104.0 Y165.0 F600
G01 X105.0 Y165.0 F600
G01 X107.5 Y165.5 F600
G01 X109.5 Y165.0 F600
G01 X111.0 Y163.5 F600
G01 X111.5 Y162.5 F600
G01 X111.5 Y159.0 F600
G01 X109.5 Y157.0 F600
G01 X107.0 Y157.0
G00 Z5
G00 X148.0 Y151.0
G01 Z-1 F200
G01 X148.0 Y151.0 F600
G01 X147.5 Y151.5 F600
G01 X147.0 Y151.5 F600
G01 X146.0 Y152.5 F600
G01 X145.5 Y153.5 F600
G01 X145.5 Y156.0 F600
G01 X146.0 Y157.0 F600
G01 X148.0 Y159.0 F600
G01 X149.0 Y159.5 F600
G01 X151.0 Y159.5 F600
G01 X152.5 Y159.0 F600
G01 X154.0 Y158.0 F600
G01 X155.0 Y158.0 F600
G01 X157.0 Y159.5 F600
G01 X157.0 Y158.5 F600
G01 X156.5 Y157.5 F600
G01 X155.5 Y157.0 F600
G01 X154.0 Y157.0 F600
G01 X152.5 Y158.0 F600
G01 X151.5 Y158.0 F600
G01 X150.0 Y158.0 F600
G01 X148.5 Y157.5 F600
G01 X147.5 Y156.5 F600
G01 X147.5 Y155.5 F600
G01 X148.5 Y154.5 F600
G01 X149.5 Y154.5 F600
G01 X150.5 Y153.5 F600
G01 X150.0 Y151.5 F600
G01 X149.0 Y151.0 F600
G01 X148.0 Y151.0
G00 Z5
G00 X98.5 Y150.5
G01 Z-1 F200
G01 X98.5 Y150.5 F600
G01 X97.5 Y151.0 F600
G01 X97.0 Y152.5 F600
G01 X97.5 Y153.5 F600
G01 X98.5 Y153.5 F600
G01 X100.0 Y155.0 F600
G01 X100.0 Y156.0 F600
G01 X98.5 Y157.5 F600
G01 X95.5 Y157.5 F600
G01 X93.5 Y156.5 F600
G01 X92.0 Y156.5 F600
G01 X91.0 Y157.5 F600
G01 X90.5 Y158.5 F600
G01 X91.5 Y159.0 F600
G01 X92.5 Y157.5 F600
G01 X94.0 Y157.5 F600
G01 X95.5 Y158.5 F600
G01 X97.0 Y159.0 F600
G01 X98.5 Y159.0 F600
G01 X99.5 Y158.5 F600
G01 X101.0 Y157.5 F600
G01 X101.5 Y156.5 F600
G01 X102.0 Y155.5 F600
G01 X102.0 Y152.5 F600
G01 X100.5 Y151.0 F600
G01 X99.5 Y150.5 F600
G01 X98.5 Y150.5
G00 Z5
G00 X154.5 Y143.0
G01 Z-1 F200
G01 X154.5 Y143.0 F600
G01 X153.5 Y144.0 F600
G01 X153.0 Y145.5 F600
G01 X153.0 Y147.0 F600
G01 X153.0 Y148.0 F600
G01 X153.5 Y149.0 F600
G01 X154.5 Y150.0 F600
G01 X156.5 Y151.0 F600
G01 X158.0 Y151.0 F600
G01 X161.0 Y149.5 F600
G01 X162.5 Y148.0 F600
G01 X163.5 Y148.0 F600
G01 X165.0 Y149.0 F600
G01 X165.0 Y148.0 F600
G01 X164.0 Y147.0 F600
G01 X162.5 Y147.0 F600
G01 X161.5 Y147.5 F600
G01 X160.0 Y149.0 F600
G01 X159.0 Y149.5 F600
G01 X157.0 Y149.5 F600
G01 X156.0 Y149.0 F600
G01 X155.5 Y147.0 F600
G01 X156.5 Y146.0 F600
G01 X157.5 Y144.5 F600
G01 X157.0 Y143.5 F600
G01 X156.0 Y143.0 F600
G01 X154.5 Y143.0
G00 Z5
G00 X92.0 Y142.5
G01 Z-1 F200
G01 X92.0 Y142.5 F600
G01 X91.0 Y143.5 F600
G01 X91.0 Y145.0 F600
G01 X93.0 Y147.5 F600
G01 X91.5 Y149.0 F600
G01 X89.0 Y149.0 F600
G01 X88.0 Y148.5 F600
G01 X86.5 Y147.0 F600
G01 X85.5 Y147.0 F600
G01 X83.5 Y147.0 F600
G01 X83.0 Y148.5 F600
G01 X84.0 Y148.0 F600
G01 X85.5 Y147.5 F600
G01 X87.0 Y149.0 F600
G01 X88.5 Y150.0 F600
G01 X90.0 Y150.5 F600
G01 X91.5 Y150.5 F600
G01 X93.0 Y150.0 F600
G01 X95.0 Y148.0 F600
G01 X95.5 Y146.5 F600
G01 X95.5 Y145.5 F600
G01 X95.0 Y144.0 F600
G01 X94.0 Y143.0 F600
G01 X93.0 Y142.5 F600
G01 X92.0 Y142.5
G00 Z5
G00 X158.0 Y134.0
G01 Z-1 F200
G01 X158.0 Y134.0 F600
G01 X157.5 Y135.0 F600
G01 X157.5 Y138.0 F600
G01 X159.0 Y139.5 F600
G01 X160.0 Y140.5 F600
G01 X162.0 Y141.0 F600
G01 X163.5 Y140.5 F600
G01 X164.5 Y140.0 F600
G01 X165.5 Y139.0 F600
G01 X169.0 Y136.5 F600
G01 X170.0 Y136.5 F600
G01 X169.5 Y135.5 F600
G01 X167.0 Y135.5 F600
G01 X165.5 Y137.0 F600
G01 X164.0 Y139.0 F600
G01 X163.0 Y139.5 F600
G01 X162.0 Y139.5 F600
G01 X161.0 Y139.0 F600
G01 X160.0 Y138.0 F600
G01 X160.0 Y137.0 F600
G01 X161.5 Y135.5 F600
G01 X161.5 Y134.5 F600
G01 X160.5 Y133.5 F600
G01 X158.0 Y134.0
G00 Z5
G00 X87.0 Y133.5
G01 Z-1 F200
G01 X87.0 Y133.5 F600
G01 X87.0 Y135.5 F600
G01 X88.0 Y136.5 F600
G01 X88.0 Y137.5 F600
G01 X87.0 Y138.5 F600
G01 X84.5 Y138.5 F600
G01 X82.0 Y135.5 F600
G01 X80.0 Y134.5 F600
G01 X78.5 Y135.0 F600
G01 X78.5 Y136.0 F600
G01 X79.5 Y136.0 F600
G01 X80.5 Y135.5 F600
G01 X81.5 Y136.5 F600
G01 X84.5 Y140.0 F600
G01 X88.0 Y140.0 F600
G01 X89.0 Y139.5 F600
G01 X90.5 Y138.0 F600
G01 X91.0 Y137.0 F600
G01 X91.0 Y135.0 F600
G01 X89.0 Y133.0 F600
G01 X87.0 Y133.5
G00 Z5
G00 X168.5 Y122.5
G01 Z-1 F200
G01 X168.5 Y122.5 F600
G01 X167.5 Y123.5 F600
G01 X167.5 Y124.5 F600
G01 X167.0 Y126.0 F600
G01 X165.0 Y128.0 F600
G01 X163.0 Y128.0 F600
G01 X162.0 Y127.0 F600
G01 X162.0 Y126.0 F600
G01 X162.5 Y124.0 F600
G01 X161.5 Y123.0 F600
G01 X160.5 Y123.0 F600
G01 X159.5 Y123.5 F600
G01 X159.0 Y127.0 F600
G01 X159.5 Y128.0 F600
G01 X160.5 Y129.0 F600
G01 X161.5 Y129.5 F600
G01 X165.0 Y129.5 F600
G01 X166.0 Y129.0 F600
G01 X167.0 Y128.0 F600
G01 X167.5 Y127.0 F600
G01 X167.5 Y126.0 F600
G01 X168.0 Y124.5 F600
G01 X169.0 Y123.5 F600
G01 X171.0 Y123.5 F600
G01 X170.5 Y122.5 F600
G01 X168.5 Y122.5
G00 Z5
G00 X77.0 Y122.5
G01 Z-1 F200
G01 X77.0 Y122.5 F600
G01 X79.0 Y123.0 F600
G01 X80.0 Y124.0 F600
G01 X81.0 Y126.0 F600
G01 X81.0 Y127.0 F600
G01 X83.0 Y129.0 F600
G01 X87.0 Y129.0 F600
G01 X88.5 Y128.0 F600
G01 X89.5 Y126.0 F600
G01 X89.5 Y124.0 F600
G01 X88.5 Y123.0 F600
G01 X86.0 Y123.0 F600
G01 X85.5 Y124.5 F600
G01 X86.5 Y125.5 F600
G01 X86.5 Y126.5 F600
G01 X85.5 Y127.5 F600
G01 X83.5 Y127.5 F600
G01 X81.0 Y124.5 F600
G01 X81.0 Y123.5 F600
G01 X79.5 Y122.0 F600
G01 X77.0 Y122.5
G00 Z5
G00 X167.0 Y109.5
G01 Z-1 F200
G01 X167.0 Y109.5 F600
G01 X166.5 Y110.0 F600
G01 X166.0 Y110.0 F600
G01 X165.5 Y114.0 F600
G01 X165.0 Y115.0 F600
G01 X163.0 Y117.0 F600
G01 X161.5 Y117.0 F600
G01 X160.5 Y116.0 F600
G01 X160.5 Y115.0 F600
G01 X161.0 Y114.0 F600
G01 X160.0 Y113.0 F600
G01 X158.5 Y113.0 F600
G01 X157.5 Y113.5 F600
G01 X157.5 Y116.5 F600
G01 X158.0 Y117.5 F600
G01 X159.5 Y118.5 F600
G01 X161.5 Y119.0 F600
G01 X163.5 Y118.5 F600
G01 X165.0 Y117.5 F600
G01 X165.5 Y116.5 F600
G01 X166.0 Y115.5 F600
G01 X166.0 Y112.0 F600
G01 X167.5 Y110.5 F600
G01 X168.5 Y110.5 F600
G01 X168.0 Y109.5 F600
G01 X167.0 Y109.5
G00 Z5
G00 X80.0 Y110.0
G01 Z-1 F200
G01 X80.0 Y110.0 F600
G01 X81.0 Y110.0 F600
G01 X82.0 Y111.0 F600
G01 X82.5 Y112.0 F600
G01 X82.5 Y115.0 F600
G01 X83.0 Y116.5 F600
G01 X84.0 Y117.5 F600
G01 X85.0 Y118.0 F600
G01 X87.0 Y118.5 F600
G01 X89.0 Y118.0 F600
G01 X90.5 Y117.0 F600
G01 X91.0 Y116.0 F600
G01 X91.0 Y113.5 F600
G01 X90.0 Y112.5 F600
G01 X88.0 Y112.5 F600
G01 X88.0 Y114.5 F600
G01 X88.0 Y115.5 F600
G01 X87.0 Y116.5 F600
G01 X85.5 Y116.5 F600
G01 X84.5 Y116.0 F600
G01 X83.5 Y115.0 F600
G01 X83.0 Y113.5 F600
G01 X83.0 Y110.5 F600
G01 X82.0 Y109.5 F600
G01 X80.0 Y110.0
G00 Z5
G00 X161.0 Y97.5
G01 Z-1 F200
G01 X161.0 Y97.5 F600
G01 X159.5 Y99.0 F600
G01 X159.5 Y101.0 F600
G01 X160.0 Y104.5 F600
G01 X158.0 Y106.5 F600
G01 X157.0 Y106.5 F600
G01 X156.0 Y105.5 F600
G01 X156.0 Y104.0 F600
G01 X155.0 Y103.0 F600
G01 X154.0 Y103.0 F600
G01 X153.0 Y104.0 F600
G01 X153.0 Y106.5 F600
G01 X154.5 Y108.0 F600
G01 X155.5 Y108.5 F600
G01 X157.5 Y108.5 F600
G01 X159.5 Y107.5 F600
G01 X161.0 Y106.0 F600
G01 X160.5 Y101.0 F600
G01 X160.5 Y99.5 F600
G01 X162.0 Y98.5 F600
G01 X162.0 Y97.5 F600
G01 X161.0 Y97.5
G00 Z5
G00 X86.0 Y98.5
G01 Z-1 F200
G01 X86.0 Y98.5 F600
G01 X87.5 Y101.0 F600
G01 X87.5 Y103.0 F600
G01 X87.5 Y104.5 F600
G01 X87.5 Y106.0 F600
G01 X89.0 Y107.5 F600
G01 X91.0 Y108.5 F600
G01 X93.0 Y108.5 F600
G01 X94.0 Y108.0 F600
G01 X95.0 Y107.0 F600
G01 X95.5 Y106.0 F600
G01 X95.5 Y104.0 F600
G01 X94.5 Y103.0 F600
G01 X92.5 Y103.5 F600
G01 X92.5 Y105.0 F600
G01 X89.5 Y106.0 F600
G01 X88.5 Y105.0 F600
G01 X88.0 Y104.0 F600
G01 X88.0 Y102.0 F600
G01 X88.0 Y98.0 F600
G01 X86.0 Y98.5
G00 Z5
G00 X124.0 Y89.0
G01 Z-1 F200
G01 X124.0 Y89.0 F600
G01 X123.5 Y90.0 F600
G01 X123.5 Y91.5 F600
G01 X121.5 Y93.5 F600
G01 X120.5 Y94.0 F600
G01 X118.0 Y94.0 F600
G01 X116.0 Y93.0 F600
G01 X115.0 Y92.0 F600
G01 X114.0 Y90.5 F600
G01 X114.0 Y92.0 F600
G01 X113.5 Y94.0 F600
G01 X113.0 Y95.0 F600
G01 X111.0 Y97.0 F600
G01 X108.0 Y97.0 F600
G01 X107.0 Y96.5 F600
G01 X106.0 Y95.5 F600
G01 X104.5 Y95.0 F600
G01 X104.5 Y96.0 F600
G01 X105.0 Y99.5 F600
G01 X104.5 Y100.5 F600
G01 X103.0 Y102.0 F600
G01 X102.0 Y102.5 F600
G01 X98.5 Y102.0 F600
G01 X97.0 Y102.0 F600
G01 X97.5 Y103.0 F600
G01 X98.0 Y104.0 F600
G01 X98.0 Y108.0 F600
G01 X96.0 Y110.0 F600
G01 X95.0 Y110.5 F600
G01 X91.5 Y110.5 F600
G01 X91.5 Y111.5 F600
G01 X93.0 Y112.5 F600
G01 X93.5 Y113.5 F600
G01 X94.0 Y114.5 F600
G01 X94.0 Y116.5 F600
G01 X93.5 Y117.5 F600
G01 X91.0 Y120.0 F600
G01 X88.5 Y120.0 F600
G01 X88.5 Y121.0 F600
G01 X90.0 Y121.5 F600
G01 X92.0 Y123.5 F600
G01 X92.5 Y124.5 F600
G01 X92.5 Y126.5 F600
G01 X91.5 Y128.5 F600
G01 X90.0 Y130.0 F600
G01 X88.5 Y131.0 F600
G01 X90.0 Y131.0 F600
G01 X92.0 Y132.0 F600
G01 X93.5 Y133.5 F600
G01 X94.0 Y135.0 F600
G01 X94.0 Y136.5 F600
G01 X93.5 Y138.0 F600
G01 X92.0 Y139.5 F600
G01 X91.5 Y140.5 F600
G01 X94.0 Y140.5 F600
G01 X95.5 Y141.0 F600
G01 X96.5 Y141.5 F600
G01 X97.5 Y142.5 F600
G01 X98.0 Y143.5 F600
G01 X98.0 Y147.0 F600
G01 X97.5 Y148.0 F600
G01 X97.0 Y149.5 F600
G01 X98.5 Y148.5 F600
G01 X101.5 Y148.5 F600
G01 X102.5 Y149.0 F600
G01 X104.5 Y151.0 F600
G01 X105.0 Y152.0 F600
G01 X105.0 Y154.5 F600
G01 X105.0 Y156.0 F600
G01 X106.5 Y155.0 F600
G01 X108.0 Y154.0 F600
G01 X110.0 Y154.0 F600
G01 X111.0 Y154.5 F600
G01 X113.5 Y157.0 F600
G01 X113.5 Y160.0 F600
G01 X114.5 Y160.0 F600
G01 X116.5 Y157.5 F600
G01 X117.5 Y157.0 F600
G01 X120.0 Y157.0 F600
G01 X121.0 Y157.5 F600
G01 X123.5 Y160.0 F600
G01 X124.5 Y161.5 F600
G01 X125.0 Y159.5 F600
G01 X127.0 Y157.5 F600
G01 X128.0 Y157.0 F600
G01 X130.0 Y157.0 F600
G01 X132.0 Y158.0 F600
G01 X133.5 Y159.5 F600
G01 X134.0 Y160.5 F600
G01 X134.5 Y157.5 F600
G01 X135.0 Y156.5 F600
G01 X137.0 Y154.5 F600
G01 X138.0 Y154.0 F600
G01 X140.0 Y154.0 F600
G01 X142.0 Y155.0 F600
G01 X143.5 Y156.0 F600
G01 X143.5 Y151.0 F600
G01 X145.5 Y149.0 F600
G01 X146.5 Y148.5 F600
G01 X149.5 Y148.5 F600
G01 X151.5 Y149.0 F600
G01 X151.0 Y148.0 F600
G01 X150.0 Y146.5 F600
G01 X150.0 Y144.0 F600
G01 X150.5 Y143.0 F600
G01 X152.5 Y141.0 F600
G01 X153.5 Y140.5 F600
G01 X155.5 Y140.5 F600
G01 X157.0 Y140.5 F600
G01 X155.0 Y138.5 F600
G01 X154.5 Y137.5 F600
G01 X154.0 Y136.0 F600
G01 X154.5 Y134.0 F600
G01 X157.0 Y131.5 F600
G01 X158.0 Y131.0 F600
G01 X159.5 Y131.0 F600
G01 X159.5 Y130.0 F600
G01 X158.5 Y130.0 F600
G01 X156.5 Y128.0 F600
G01 X156.0 Y127.0 F600
G01 X156.0 Y126.0 F600
G01 X156.0 Y124.5 F600
G01 X156.5 Y123.0 F600
G01 X158.0 Y121.5 F600
G01 X159.0 Y121.0 F600
G01 X160.0 Y120.5 F600
G01 X157.5 Y120.0 F600
G01 X156.5 Y119.5 F600
G01 X155.0 Y118.0 F600
G01 X154.5 Y117.0 F600
G01 X154.5 Y114.0 F600
G01 X156.5 Y111.5 F600
G01 X157.0 Y110.5 F600
G01 X153.5 Y110.5 F600
G01 X152.5 Y110.0 F600
G01 X150.5 Y108.0 F600
G01 X150.0 Y107.0 F600
G01 X150.0 Y104.5 F600
G01 X150.5 Y103.5 F600
G01 X151.5 Y102.0 F600
G01 X150.0 Y102.0 F600
G01 X146.5 Y102.5 F600
G01 X145.5 Y102.0 F600
G01 X144.0 Y100.5 F600
G01 X143.5 Y99.5 F600
G01 X143.5 Y96.5 F600
G01 X143.5 Y95.0 F600
G01 X142.0 Y96.0 F600
G01 X140.5 Y97.0 F600
G01 X138.0 Y97.0 F600
G01 X137.0 Y96.5 F600
G01 X135.5 Y95.0 F600
G01 X135.0 Y94.0 F600
G01 X135.0 Y93.0 F600
G01 X135.0 Y91.0 F600
G01 X133.5 Y91.5 F600
G01 X132.5 Y93.0 F600
G01 X130.5 Y94.0 F600
G01 X128.0 Y94.0 F600
G01 X127.0 Y93.5 F600
G01 X125.5 Y92.0 F600
G01 X124.5 Y90.0 F600
G01 X124.0 Y89.0
G00 Z5
G00 X123.5 Y92.0
G01 Z-1 F200
G01 X123.5 Y92.0 F600
G01 X125.0 Y92.0 F600
G01 X128.0 Y95.0 F600
G01 X130.5 Y95.0 F600
G01 X132.0 Y94.0 F600
G01 X133.5 Y93.0 F600
G01 X134.5 Y94.0 F600
G01 X134.5 Y95.0 F600
G01 X135.0 Y96.0 F600
G01 X136.0 Y97.0 F600
G01 X137.0 Y97.5 F600
G01 X138.5 Y98.0 F600
G01 X140.0 Y98.0 F600
G01 X141.0 Y97.5 F600
G01 X142.5 Y97.5 F600
G01 X142.5 Y99.5 F600
G01 X143.0 Y100.5 F600
G01 X143.5 Y101.5 F600
G01 X145.5 Y103.0 F600
G01 X147.0 Y103.5 F600
G01 X148.0 Y103.5 F600
G01 X149.5 Y103.5 F600
G01 X149.0 Y105.5 F600
G01 X149.0 Y106.5 F600
G01 X149.5 Y108.0 F600
G01 X150.0 Y109.0 F600
G01 X152.0 Y111.0 F600
G01 X154.0 Y111.0 F600
G01 X155.0 Y112.0 F600
G01 X153.5 Y114.0 F600
G01 X153.5 Y116.5 F600
G01 X154.0 Y118.0 F600
G01 X155.0 Y119.5 F600
G01 X156.5 Y120.0 F600
G01 X157.5 Y121.0 F600
G01 X156.0 Y122.0 F600
G01 X155.5 Y123.0 F600
G01 X155.0 Y124.0 F600
G01 X155.0 Y126.5 F600
G01 X155.5 Y128.0 F600
G01 X156.0 Y129.0 F600
G01 X157.0 Y131.0 F600
G01 X156.0 Y131.0 F600
G01 X154.5 Y132.5 F600
G01 X153.5 Y134.5 F600
G01 X153.5 Y137.5 F600
G01 X154.0 Y138.5 F600
G01 X154.0 Y140.0 F600
G01 X152.5 Y140.0 F600
G01 X151.5 Y140.5 F600
G01 X150.0 Y142.0 F600
G01 X149.5 Y143.0 F600
G01 X149.5 Y144.5 F600
G01 X149.5 Y146.0 F600
G01 X148.0 Y147.5 F600
G01 X147.0 Y147.5 F600
G01 X145.5 Y148.0 F600
G01 X144.5 Y149.0 F600
G01 X142.5 Y151.5 F600
G01 X141.0 Y153.5 F600
G01 X137.0 Y153.5 F600
G01 X136.0 Y154.0 F600
G01 X134.5 Y155.5 F600
G01 X134.0 Y156.5 F600
G01 X133.0 Y158.0 F600
G01 X132.0 Y157.0 F600
G01 X131.0 Y156.5 F600
G01 X127.0 Y156.5 F600
G01 X126.0 Y157.0 F600
G01 X125.0 Y158.0 F600
G01 X124.0 Y159.5 F600
G01 X123.0 Y158.5 F600
G01 X120.5 Y156.5 F600
G01 X119.0 Y156.0 F600
G01 X118.0 Y156.0 F600
G01 X116.5 Y156.5 F600
G01 X114.0 Y157.5 F600
G01 X114.0 Y156.5 F600
G01 X113.5 Y155.5 F600
G01 X112.5 Y154.5 F600
G01 X111.0 Y153.5 F600
G01 X107.0 Y153.5 F600
G01 X105.5 Y153.5 F600
G01 X105.5 Y151.0 F600
G01 X105.0 Y150.0 F600
G01 X103.5 Y148.5 F600
G01 X102.5 Y148.0 F600
G01 X101.0 Y147.5 F600
G01 X100.0 Y147.5 F600
G01 X99.0 Y146.5 F600
G01 X99.0 Y143.5 F600
G01 X98.5 Y142.5 F600
G01 X96.5 Y140.5 F600
G01 X95.5 Y140.0 F600
G01 X93.5 Y139.0 F600
G01 X94.5 Y138.0 F600
G01 X94.5 Y134.0 F600
G01 X91.5 Y131.0 F600
G01 X91.0 Y130.0 F600
G01 X92.5 Y128.5 F600
G01 X93.0 Y127.5 F600
G01 X93.5 Y126.0 F600
G01 X93.5 Y125.0 F600
G01 X93.0 Y123.5 F600
G01 X92.5 Y122.5 F600
G01 X91.0 Y121.0 F600
G01 X92.0 Y120.0 F600
G01 X94.0 Y118.5 F600
G01 X94.5 Y117.5 F600
G01 X95.0 Y115.5 F600
G01 X94.5 Y113.5 F600
G01 X93.5 Y112.0 F600
G01 X94.5 Y111.0 F600
G01 X96.0 Y111.0 F600
G01 X97.0 Y110.5 F600
G01 X98.0 Y109.5 F600
G01 X99.0 Y107.5 F600
G01 X98.5 Y104.5 F600
G01 X100.0 Y103.5 F600
G01 X101.5 Y103.5 F600
G01 X103.0 Y103.0 F600
G01 X105.5 Y100.5 F600
G01 X106.0 Y97.0 F600
G01 X107.0 Y97.0 F600
G01 X108.5 Y98.0 F600
G01 X110.0 Y98.0 F600
G01 X111.5 Y97.5 F600
G01 X112.5 Y97.0 F600
G01 X113.5 Y96.0 F600
G01 X114.0 Y95.0 F600
G01 X115.0 Y93.0 F600
G01 X116.0 Y94.0 F600
G01 X118.0 Y95.0 F600
G01 X120.0 Y95.0 F600
G01 X121.5 Y94.5 F600
G01 X123.5 Y92.0
G00 Z5
G00 X120.0 Y96.5
G01 Z-1 F200
G01 X120.0 Y96.5 F600
G01 X117.0 Y97.0 F600
G01 X115.5 Y97.5 F600
G01 X114.0 Y98.0 F600
G01 X111.5 Y99.5 F600
G01 X110.5 Y99.5 F600
G01 X109.5 Y100.0 F600
G01 X108.0 Y101.0 F600
G01 X106.0 Y102.5 F600
G01 X101.0 Y107.5 F600
G01 X99.5 Y109.5 F600
G01 X99.0 Y111.0 F600
G01 X98.0 Y112.0 F600
G01 X97.0 Y114.0 F600
G01 X96.5 Y115.5 F600
G01 X96.0 Y117.0 F600
G01 X95.5 Y119.0 F600
G01 X95.0 Y121.0 F600
G01 X95.0 Y130.5 F600
G01 X95.5 Y132.5 F600
G01 X96.0 Y134.0 F600
G01 X96.5 Y135.5 F600
G01 X97.0 Y137.0 F600
G01 X97.5 Y138.5 F600
G01 X98.5 Y139.5 F600
G01 X99.0 Y141.0 F600
G01 X100.0 Y142.5 F600
G01 X101.0 Y144.0 F600
G01 X106.0 Y149.0 F600
G01 X108.0 Y150.5 F600
G01 X114.0 Y153.5 F600
G01 X115.5 Y154.0 F600
G01 X117.5 Y154.5 F600
G01 X120.5 Y155.0 F600
G01 X128.0 Y155.0 F600
G01 X131.0 Y154.5 F600
G01 X133.0 Y154.0 F600
G01 X134.5 Y153.0 F600
G01 X135.5 Y153.0 F600
G01 X139.5 Y151.0 F600
G01 X141.0 Y150.0 F600
G01 X143.5 Y148.0 F600
G01 X147.0 Y144.5 F600
G01 X148.0 Y143.0 F600
G01 X149.0 Y141.5 F600
G01 X150.0 Y140.0 F600
G01 X151.5 Y137.0 F600
G01 X152.0 Y135.5 F600
G01 X152.5 Y134.0 F600
G01 X153.0 Y132.0 F600
G01 X153.5 Y130.0 F600
G01 X153.5 Y121.5 F600
G01 X153.0 Y119.0 F600
G01 X152.5 Y117.5 F600
G01 X152.0 Y116.0 F600
G01 X151.5 Y114.5 F600
G01 X149.5 Y110.5 F600
G01 X148.5 Y109.0 F600
G01 X147.5 Y107.5 F600
G01 X143.0 Y103.0 F600
G01 X140.5 Y101.0 F600
G01 X139.0 Y100.5 F600
G01 X138.0 Y99.5 F600
G01 X137.0 Y99.5 F600
G01 X134.5 Y98.0 F600
G01 X133.0 Y97.5 F600
G01 X131.5 Y97.0 F600
G01 X128.5 Y96.5 F600
G01 X120.0 Y96.5
G00 Z5
G00 X122.0 Y97.0
G01 Z-1 F200
G01 X122.0 Y97.0 F600
G01 X126.5 Y97.0 F600
G01 X129.5 Y97.5 F600
G01 X132.0 Y98.0 F600
G01 X133.5 Y98.5 F600
G01 X135.0 Y99.0 F600
G01 X137.0 Y100.0 F600
G01 X138.0 Y101.0 F600
G01 X139.5 Y101.5 F600
G01 X141.0 Y102.5 F600
G01 X144.0 Y105.5 F600
G01 X145.0 Y106.5 F600
G01 X147.5 Y109.0 F600
G01 X148.5 Y110.5 F600
G01 X151.0 Y115.5 F600
G01 X151.5 Y117.0 F600
G01 X152.0 Y118.5 F600
G01 X152.5 Y121.0 F600
G01 X153.0 Y124.5 F600
G01 X153.0 Y127.0 F600
G01 X152.5 Y130.5 F600
G01 X152.0 Y132.5 F600
G01 X151.5 Y134.5 F600
G01 X151.0 Y136.0 F600
G01 X148.5 Y141.0 F600
G01 X147.5 Y142.5 F600
G01 X141.0 Y149.0 F600
G01 X139.5 Y149.5 F600
G01 X138.5 Y150.5 F600
G01 X134.5 Y152.5 F600
G01 X133.0 Y153.0 F600
G01 X131.5 Y153.5 F600
G01 X129.0 Y154.0 F600
G01 X125.0 Y154.5 F600
G01 X123.5 Y154.5 F600
G01 X119.5 Y154.0 F600
G01 X117.0 Y153.5 F600
G01 X115.0 Y153.0 F600
G01 X112.5 Y151.5 F600
G01 X111.5 Y151.5 F600
G01 X110.5 Y151.0 F600
G01 X109.0 Y149.5 F600
G01 X107.5 Y149.0 F600
G01 X101.0 Y142.5 F600
G01 X100.0 Y141.0 F600
G01 X97.5 Y136.0 F600
G01 X97.0 Y134.5 F600
G01 X96.5 Y133.0 F600
G01 X96.0 Y131.0 F600
G01 X95.5 Y126.5 F600
G01 X95.5 Y124.5 F600
G01 X96.0 Y120.5 F600
G01 X96.5 Y118.5 F600
G01 X97.0 Y117.0 F600
G01 X97.5 Y115.5 F600
G01 X98.0 Y114.0 F600
G01 X99.0 Y112.0 F600
G01 X100.0 Y110.5 F600
G01 X101.0 Y109.0 F600
G01 X103.0 Y106.5 F600
G01 X106.5 Y103.0 F600
G01 X108.0 Y102.0 F600
G01 X109.5 Y101.5 F600
G01 X110.5 Y100.5 F600
G01 X112.5 Y99.5 F600
G01 X113.5 Y99.5 F600
G01 X115.0 Y98.5 F600
G01 X116.5 Y98.0 F600
G01 X118.5 Y97.5 F600
G01 X122.0 Y97.0
G00 Z5
G00 X121.0 Y148.5
G01 Z-1 F200
G01 X121.0 Y148.5 F600
G01 X120.5 Y150.0 F600
G01 X120.5 Y151.0 F600
G01 X122.0 Y151.5 F600
G01 X125.0 Y151.5 F600
G01 X124.5 Y150.5 F600
G01 X124.0 Y148.5 F600
G01 X123.0 Y150.5 F600
G01 X122.5 Y149.0 F600
G01 X121.0 Y148.5
G00 Z5
G00 X113.0 Y146.0
G01 Z-1 F200
G01 X113.0 Y146.0 F600
G01 X113.0 Y147.0 F600
G01 X113.0 Y149.0 F600
G01 X113.5 Y148.0 F600
G01 X114.5 Y149.5 F600
G01 X115.5 Y149.5 F600
G01 X116.5 Y150.5 F600
G01 X119.0 Y151.0 F600
G01 X119.0 Y148.0 F600
G01 X117.5 Y149.0 F600
G01 X117.0 Y148.0 F600
G01 X115.5 Y147.0 F600
G01 X114.5 Y146.5 F600
G01 X113.0 Y146.0
G00 Z5
G00 X135.5 Y145.5
G01 Z-1 F200
G01 X135.5 Y145.5 F600
G01 X134.5 Y146.0 F600
G01 X133.5 Y147.0 F600
G01 X132.5 Y147.0 F600
G01 X132.0 Y149.5 F600
G01 X131.0 Y147.5 F600
G01 X130.5 Y149.0 F600
G01 X129.0 Y148.0 F600
G01 X127.0 Y149.0 F600
G01 X126.0 Y148.5 F600
G01 X126.0 Y150.5 F600
G01 X126.5 Y151.5 F600
G01 X129.5 Y151.0 F600
G01 X131.0 Y150.5 F600
G01 X132.5 Y150.0 F600
G01 X134.0 Y149.5 F600
G01 X135.0 Y149.0 F600
G01 X136.0 Y147.0 F600
G01 X137.0 Y148.0 F600
G01 X137.0 Y147.0 F600
G01 X135.5 Y145.5
G00 Z5
G00 X145.5 Y133.5
G01 Z-1 F200
G01 X145.5 Y133.5 F600
G01 X146.0 Y134.5 F600
G01 X145.0 Y135.5 F600
G01 X146.5 Y136.5 F600
G01 X144.0 Y137.0 F600
G01 X144.0 Y138.0 F600
G01 X143.0 Y139.0 F600
G01 X142.5 Y140.5 F600
G01 X140.5 Y141.5 F600
G01 X140.0 Y143.0 F600
G01 X138.5 Y144.0 F600
G01 X137.0 Y145.0 F600
G01 X138.0 Y146.5 F600
G01 X139.0 Y147.0 F600
G01 X140.5 Y145.5 F600
G01 X143.0 Y143.5 F600
G01 X144.0 Y142.0 F600
G01 X145.0 Y141.0 F600
G01 X144.5 Y139.0 F600
G01 X145.5 Y139.5 F600
G01 X146.5 Y138.5 F600
G01 X146.5 Y137.5 F600
G01 X147.5 Y136.5 F600
G01 X147.5 Y135.5 F600
G01 X148.5 Y134.5 F600
G01 X147.0 Y133.5 F600
G01 X145.5 Y133.5
G00 Z5
G00 X141.5 Y141.5
G01 Z-1 F200
G01 X141.5 Y141.5 F600
G01 X142.0 Y143.5 F600
G01 X141.0 Y142.5 F600
G01 X141.5 Y141.5
G00 Z5
G00 X100.0 Y133.5
G01 Z-1 F200
G01 X100.0 Y133.5 F600
G01 X99.5 Y135.0 F600
G01 X101.0 Y136.5 F600
G01 X102.0 Y137.0 F600
G01 X101.5 Y138.5 F600
G01 X103.0 Y139.0 F600
G01 X103.0 Y140.5 F600
G01 X104.0 Y142.0 F600
G01 X106.5 Y144.5 F600
G01 X109.5 Y147.0 F600
G01 X110.5 Y147.5 F600
G01 X111.0 Y146.5 F600
G01 X112.0 Y145.5 F600
G01 X111.0 Y145.0 F600
G01 X110.5 Y144.0 F600
G01 X109.5 Y144.0 F600
G01 X109.0 Y143.0 F600
G01 X108.0 Y143.5 F600
G01 X108.0 Y142.0 F600
G01 X106.5 Y141.5 F600
G01 X106.5 Y140.5 F600
G01 X105.5 Y141.5 F600
G01 X105.5 Y139.5 F600
G01 X103.5 Y139.5 F600
G01 X104.5 Y138.5 F600
G01 X104.5 Y137.5 F600
G01 X103.0 Y136.5 F600
G01 X103.0 Y135.0 F600
G01 X103.0 Y134.0 F600
G01 X102.0 Y133.0 F600
G01 X100.0 Y133.5
G00 Z5
G00 X147.5 Y121.5
G01 Z-1 F200
G01 X147.5 Y121.5 F600
G01 X147.5 Y123.0 F600
G01 X148.0 Y124.5 F600
G01 X148.0 Y126.5 F600
G01 X147.0 Y128.0 F600
G01 X147.0 Y129.0 F600
G01 X149.0 Y129.5 F600
G01 X149.5 Y128.0 F600
G01 X148.5 Y126.5 F600
G01 X148.5 Y124.0 F600
G01 X149.0 Y123.0 F600
G01 X149.0 Y121.5 F600
G01 X147.5 Y121.5 F600
G01 X147.5 Y121.5
G00 Z5
G00 X99.5 Y121.5
G01 Z-1 F200
G01 X99.5 Y121.5 F600
G01 X99.5 Y123.0 F600
G01 X99.0 Y128.0 F600
G01 X99.0 Y129.0 F600
G01 X101.0 Y129.5 F600
G01 X101.5 Y128.0 F600
G01 X100.5 Y126.5 F600
G01 X100.5 Y124.0 F600
G01 X101.0 Y123.0 F600
G01 X101.0 Y121.5 F600
G01 X99.5 Y121.5 F600
G01 X99.5 Y121.5
G00 Z5
G00 X103.0 Y110.5
G01 Z-1 F200
G01 X103.0 Y110.5 F600
G01 X102.0 Y111.5 F600
G01 X101.5 Y112.5 F600
G01 X101.5 Y113.5 F600
G01 X100.5 Y114.5 F600
G01 X100.5 Y115.5 F600
G01 X101.5 Y116.5 F600
G01 X102.5 Y114.5 F600
G01 X103.5 Y115.5 F600
G01 X103.5 Y113.5 F600
G01 X102.0 Y113.0 F600
G01 X102.5 Y111.5 F600
G01 X104.0 Y112.5 F600
G01 X106.0 Y112.0 F600
G01 X105.0 Y110.5 F600
G01 X103.5 Y109.0 F600
G01 X103.0 Y110.5
G00 Z5
G00 X121.5 Y105.0
G01 Z-1 F200
G01 X121.5 Y105.0 F600
G01 X118.5 Y105.5 F600
G01 X117.0 Y106.0 F600
G01 X116.0 Y107.0 F600
G01 X115.0 Y107.5 F600
G01 X114.0 Y107.5 F600
G01 X113.0 Y108.0 F600
G01 X111.0 Y109.5 F600
G01 X108.0 Y112.5 F600
G01 X107.0 Y114.0 F600
G01 X106.0 Y115.5 F600
G01 X105.0 Y117.5 F600
G01 X105.0 Y118.5 F600
G01 X104.0 Y120.0 F600
G01 X103.5 Y122.0 F600
G01 X103.5 Y129.0 F600
G01 X104.0 Y131.0 F600
G01 X105.0 Y132.5 F600
G01 X105.0 Y133.5 F600
G01 X105.5 Y135.0 F600
G01 X106.5 Y136.5 F600
G01 X107.5 Y138.0 F600
G01 X112.0 Y142.5 F600
G01 X115.5 Y144.0 F600
G01 X116.5 Y145.0 F600
G01 X118.0 Y145.5 F600
G01 X120.5 Y146.0 F600
G01 X127.5 Y146.0 F600
G01 X130.0 Y145.5 F600
G01 X131.5 Y145.0 F600
G01 X135.5 Y143.0 F600
G01 X138.0 Y141.0 F600
G01 X139.5 Y139.5 F600
G01 X141.5 Y137.0 F600
G01 X143.5 Y133.0 F600
G01 X144.0 Y131.5 F600
G01 X144.5 Y129.5 F600
G01 X145.0 Y126.0 F600
G01 X145.0 Y125.0 F600
G01 X144.5 Y122.0 F600
G01 X144.0 Y120.0 F600
G01 X143.5 Y118.0 F600
G01 X142.5 Y116.0 F600
G01 X141.5 Y115.0 F600
G01 X141.0 Y113.5 F600
G01 X136.5 Y109.0 F600
G01 X134.5 Y107.5 F600
G01 X133.5 Y107.5 F600
G01 X131.0 Y106.0 F600
G01 X129.5 Y105.5 F600
G01 X122.5 Y105.0 F600
G01 X121.5 Y105.0
G00 Z5
G00 X121.5 Y144.0
G01 Z-1 F200
G01 X121.5 Y144.0 F600
G01 X122.5 Y145.0 F600
G01 X121.0 Y145.0 F600
G01 X121.5 Y144.0
G00 Z5
G00 X111.5 Y141.0
G01 Z-1 F200
G01 X111.5 Y141.0 F600
G01 X112.5 Y140.5 F600
G01 X113.5 Y141.5 F600
G01 X112.5 Y142.0 F600
G01 X111.5 Y141.0
G00 Z5
G00 X107.0 Y133.0
G01 Z-1 F200
G01 X107.0 Y133.0 F600
G01 X106.5 Y134.5 F600
G01 X105.5 Y133.5 F600
G01 X107.0 Y133.0
G00 Z5
G00 X142.5 Y132.0
G01 Z-1 F200
G01 X142.5 Y132.0 F600
G01 X143.0 Y133.0 F600
G01 X142.0 Y134.0 F600
G01 X141.5 Y133.0 F600
G01 X142.5 Y132.0
G00 Z5
G00 X104.5 Y127.0
G01 Z-1 F200
G01 X104.5 Y127.0 F600
G01 X105.5 Y128.0 F600
G01 X105.0 Y129.5 F600
G01 X104.0 Y128.5 F600
G01 X104.5 Y127.0
G00 Z5
G00 X123.0 Y106.5
G01 Z-1 F200
G01 X123.0 Y106.5 F600
G01 X125.5 Y106.5 F600
G01 X127.5 Y107.0 F600
G01 X129.5 Y107.0 F600
G01 X131.5 Y109.0 F600
G01 X133.0 Y108.5 F600
G01 X134.5 Y109.5 F600
G01 X135.5 Y111.5 F600
G01 X137.0 Y111.5 F600
G01 X138.5 Y113.0 F600
G01 X139.0 Y114.5 F600
G01 X141.0 Y116.5 F600
G01 X141.0 Y118.5 F600
G01 X142.0 Y119.5 F600
G01 X142.5 Y121.0 F600
G01 X143.0 Y122.0 F600
G01 X142.0 Y123.0 F600
G01 X143.5 Y125.0 F600
G01 X143.5 Y126.0 F600
G01 X142.0 Y127.5 F600
G01 X142.5 Y130.0 F600
G01 X142.5 Y131.0 F600
G01 X141.0 Y132.5 F600
G01 X141.0 Y134.5 F600
G01 X138.5 Y136.5 F600
G01 X138.5 Y138.0 F600
G01 X136.5 Y140.0 F600
G01 X135.0 Y140.5 F600
G01 X134.0 Y142.0 F600
G01 X132.5 Y143.0 F600
G01 X131.0 Y142.5 F600
G01 X130.0 Y144.0 F600
G01 X127.5 Y144.0 F600
G01 X126.5 Y143.5 F600
G01 X125.0 Y145.0 F600
G01 X123.5 Y145.0 F600
G01 X121.5 Y143.5 F600
G01 X119.5 Y144.0 F600
G01 X118.5 Y144.0 F600
G01 X117.5 Y142.5 F600
G01 X115.0 Y142.5 F600
G01 X113.5 Y140.5 F600
G01 X111.5 Y140.0 F600
G01 X110.0 Y138.5 F600
G01 X109.5 Y136.5 F600
G01 X107.5 Y135.0 F600
G01 X107.0 Y132.0 F600
G01 X105.5 Y130.5 F600
G01 X105.5 Y129.5 F600
G01 X106.5 Y128.0 F600
G01 X105.0 Y126.5 F600
G01 X105.0 Y125.0 F600
G01 X106.0 Y123.5 F600
G01 X106.0 Y122.5 F600
G01 X105.5 Y121.0 F600
G01 X106.0 Y120.0 F600
G01 X107.5 Y119.0 F600
G01 X107.5 Y116.0 F600
G01 X108.5 Y115.0 F600
G01 X110.0 Y114.5 F600
G01 X110.0 Y113.0 F600
G01 X112.0 Y111.0 F600
G01 X113.0 Y111.5 F600
G01 X113.5 Y110.0 F600
G01 X114.5 Y109.0 F600
G01 X115.5 Y108.5 F600
G01 X117.5 Y109.0 F600
G01 X119.0 Y107.0 F600
G01 X121.0 Y107.0 F600
G01 X122.0 Y107.5 F600
G01 X123.0 Y106.5
G00 Z5
G00 X124.0 Y108.0
G01 Z-1 F200
G01 X124.0 Y108.0 F600
G01 X123.5 Y109.0 F600
G01 X124.0 Y115.5 F600
G01 X124.0 Y117.5 F600
G01 X123.0 Y118.5 F600
G01 X122.0 Y117.0 F600
G01 X122.0 Y115.0 F600
G01 X121.5 Y113.0 F600
G01 X121.0 Y111.0 F600
G01 X119.5 Y109.0 F600
G01 X119.5 Y110.0 F600
G01 X120.0 Y112.0 F600
G01 X120.5 Y113.5 F600
G01 X121.5 Y116.0 F600
G01 X122.0 Y117.5 F600
G01 X122.5 Y119.5 F600
G01 X122.0 Y121.0 F600
G01 X121.0 Y120.0 F600
G01 X121.0 Y118.5 F600
G01 X119.5 Y117.0 F600
G01 X119.5 Y116.0 F600
G01 X119.0 Y115.0 F600
G01 X118.0 Y114.0 F600
G01 X117.0 Y111.5 F600
G01 X115.5 Y110.5 F600
G01 X116.0 Y111.5 F600
G01 X117.0 Y113.0 F600
G01 X117.0 Y114.0 F600
G01 X117.5 Y115.0 F600
G01 X118.5 Y116.5 F600
G01 X119.5 Y117.5 F600
G01 X120.0 Y119.0 F600
G01 X121.0 Y120.0 F600
G01 X121.5 Y121.0 F600
G01 X120.5 Y121.5 F600
G01 X119.5 Y120.5 F600
G01 X113.5 Y113.5 F600
G01 X112.0 Y113.0 F600
G01 X112.5 Y114.0 F600
G01 X118.0 Y119.5 F600
G01 X119.0 Y120.5 F600
G01 X120.5 Y122.0 F600
G01 X119.0 Y122.0 F600
G01 X117.5 Y121.0 F600
G01 X116.0 Y120.5 F600
G01 X115.0 Y119.5 F600
G01 X113.5 Y119.0 F600
G01 X112.5 Y118.0 F600
G01 X110.5 Y117.0 F600
G01 X109.5 Y117.5 F600
G01 X110.5 Y118.0 F600
G01 X112.0 Y119.0 F600
G01 X113.5 Y119.5 F600
G01 X114.5 Y120.5 F600
G01 X116.0 Y121.0 F600
G01 X117.0 Y122.0 F600
G01 X118.5 Y122.5 F600
G01 X118.5 Y124.0 F600
G01 X117.0 Y123.0 F600
G01 X115.5 Y123.0 F600
G01 X113.5 Y122.0 F600
G01 X112.0 Y121.5 F600
G01 X110.0 Y121.0 F600
G01 X107.5 Y121.0 F600
G01 X108.5 Y121.5 F600
G01 X110.5 Y122.0 F600
G01 X112.0 Y122.5 F600
G01 X114.5 Y123.5 F600
G01 X116.0 Y123.5 F600
G01 X118.5 Y125.5 F600
G01 X116.5 Y125.0 F600
G01 X113.5 Y125.5 F600
G01 X108.0 Y125.0 F600
G01 X107.0 Y126.0 F600
G01 X117.5 Y126.0 F600
G01 X118.5 Y127.0 F600
G01 X117.0 Y127.0 F600
G01 X115.0 Y127.5 F600
G01 X113.0 Y128.0 F600
G01 X111.0 Y129.0 F600
G01 X109.0 Y129.0 F600
G01 X107.5 Y130.0 F600
G01 X110.0 Y130.0 F600
G01 X112.0 Y129.5 F600
G01 X114.0 Y128.5 F600
G01 X116.0 Y128.0 F600
G01 X117.5 Y127.5 F600
G01 X119.5 Y128.0 F600
G01 X118.5 Y128.5 F600
G01 X115.5 Y130.0 F600
G01 X114.5 Y131.0 F600
G01 X112.0 Y132.0 F600
G01 X110.5 Y133.0 F600
G01 X109.0 Y134.5 F600
G01 X110.0 Y134.5 F600
G01 X112.0 Y133.5 F600
G01 X113.0 Y132.5 F600
G01 X114.5 Y132.0 F600
G01 X116.0 Y131.0 F600
G01 X117.0 Y130.0 F600
G01 X118.0 Y129.5 F600
G01 X119.5 Y128.5 F600
G01 X120.0 Y129.5 F600
G01 X119.0 Y130.5 F600
G01 X118.0 Y131.5 F600
G01 X116.0 Y133.0 F600
G01 X115.0 Y134.0 F600
G01 X113.5 Y135.5 F600
G01 X112.0 Y138.0 F600
G01 X119.5 Y131.0 F600
G01 X120.0 Y132.5 F600
G01 X119.0 Y133.5 F600
G01 X118.0 Y135.0 F600
G01 X116.5 Y138.5 F600
G01 X115.5 Y139.5 F600
G01 X115.5 Y140.5 F600
G01 X116.5 Y140.0 F600
G01 X117.5 Y138.5 F600
G01 X119.5 Y134.0 F600
G01 X121.0 Y132.5 F600
G01 X121.5 Y135.0 F600
G01 X121.0 Y136.5 F600
G01 X120.0 Y138.5 F600
G01 X119.5 Y140.5 F600
G01 X119.5 Y142.5 F600
G01 X120.0 Y141.5 F600
G01 X120.5 Y140.0 F600
G01 X121.5 Y138.0 F600
G01 X121.5 Y136.0 F600
G01 X122.0 Y134.0 F600
G01 X124.0 Y131.5 F600
G01 X123.5 Y139.0 F600
G01 X123.5 Y142.0 F600
G01 X124.0 Y143.0 F600
G01 X125.0 Y130.5 F600
G01 X125.5 Y132.5 F600
G01 X126.5 Y134.5 F600
G01 X127.0 Y136.5 F600
G01 X127.0 Y138.5 F600
G01 X127.5 Y140.0 F600
G01 X128.0 Y141.5 F600
G01 X129.0 Y142.5 F600
G01 X129.0 Y141.0 F600
G01 X128.5 Y139.0 F600
G01 X128.0 Y137.5 F600
G01 X127.5 Y135.5 F600
G01 X127.0 Y134.0 F600
G01 X126.5 Y132.5 F600
G01 X126.0 Y131.5 F600
G01 X126.0 Y130.0 F600
G01 X127.5 Y131.5 F600
G01 X127.5 Y132.5 F600
G01 X128.5 Y133.5 F600
G01 X129.5 Y136.0 F600
G01 X130.5 Y137.0 F600
G01 X131.5 Y139.5 F600
G01 X133.0 Y140.5 F600
G01 X132.5 Y139.5 F600
G01 X131.5 Y137.0 F600
G01 X130.5 Y136.0 F600
G01 X130.0 Y134.5 F600
G01 X129.0 Y133.5 F600
G01 X128.5 Y132.0 F600
G01 X127.5 Y129.5 F600
G01 X135.5 Y137.5 F600
G01 X136.5 Y138.0 F600
G01 X135.5 Y136.5 F600
G01 X132.5 Y133.0 F600
G01 X128.0 Y129.0 F600
G01 X129.0 Y128.5 F600
G01 X130.0 Y129.5 F600
G01 X131.5 Y130.0 F600
G01 X132.5 Y131.0 F600
G01 X135.0 Y132.0 F600
G01 X136.0 Y133.0 F600
G01 X138.0 Y134.0 F600
G01 X139.5 Y134.0 F600
G01 X138.5 Y133.0 F600
G01 X136.0 Y132.0 F600
G01 X135.0 Y131.0 F600
G01 X131.5 Y129.5 F600
G01 X130.5 Y128.5 F600
G01 X133.0 Y128.0 F600
G01 X134.5 Y128.5 F600
G01 X136.5 Y129.5 F600
G01 X139.0 Y130.0 F600
G01 X141.0 Y130.0 F600
G01 X140.0 Y129.5 F600
G01 X138.0 Y129.0 F600
G01 X136.0 Y128.5 F600
G01 X134.0 Y128.0 F600
G01 X132.0 Y127.5 F600
G01 X129.5 Y125.5 F600
G01 X130.5 Y125.5 F600
G01 X133.5 Y125.5 F600
G01 X140.0 Y126.0 F600
G01 X141.5 Y125.5 F600
G01 X131.0 Y125.0 F600
G01 X130.0 Y124.0 F600
G01 X132.0 Y124.0 F600
G01 X133.5 Y123.5 F600
G01 X135.5 Y123.0 F600
G01 X137.5 Y122.5 F600
G01 X139.0 Y122.0 F600
G01 X141.0 Y121.0 F600
G01 X138.5 Y121.0 F600
G01 X136.5 Y121.5 F600
G01 X135.0 Y122.0 F600
G01 X133.0 Y123.0 F600
G01 X131.5 Y123.0 F600
G01 X130.5 Y123.5 F600
G01 X129.5 Y122.5 F600
G01 X130.5 Y122.5 F600
G01 X131.5 Y121.5 F600
G01 X135.0 Y120.0 F600
G01 X136.0 Y119.0 F600
G01 X137.5 Y118.5 F600
G01 X139.0 Y117.0 F600
G01 X138.0 Y117.0 F600
G01 X136.0 Y118.0 F600
G01 X135.0 Y119.0 F600
G01 X133.5 Y119.5 F600
G01 X132.5 Y120.5 F600
G01 X130.0 Y120.5 F600
G01 X136.5 Y113.5 F600
G01 X127.0 Y121.0 F600
G01 X127.5 Y120.0 F600
G01 X129.0 Y118.5 F600
G01 X129.5 Y117.0 F600
G01 X130.5 Y116.0 F600
G01 X131.0 Y114.5 F600
G01 X132.0 Y113.5 F600
G01 X133.0 Y111.5 F600
G01 X133.0 Y110.5 F600
G01 X131.5 Y112.0 F600
G01 X131.0 Y113.5 F600
G01 X130.0 Y114.5 F600
G01 X129.0 Y117.0 F600
G01 X128.0 Y118.0 F600
G01 X127.5 Y119.0 F600
G01 X127.5 Y120.0 F600
G01 X125.5 Y120.0 F600
G01 X126.5 Y119.0 F600
G01 X127.0 Y117.0 F600
G01 X127.5 Y115.5 F600
G01 X128.0 Y113.5 F600
G01 X128.5 Y111.5 F600
G01 X129.0 Y110.0 F600
G01 X129.0 Y109.0 F600
G01 X128.0 Y109.5 F600
G01 X128.0 Y110.5 F600
G01 X127.0 Y112.5 F600
G01 X127.0 Y114.5 F600
G01 X126.5 Y116.5 F600
G01 X126.0 Y118.0 F600
G01 X125.0 Y120.5 F600
G01 X124.0 Y108.0
G00 Z5
G00 X122.0 Y130.0
G01 Z-1 F200
G01 X122.0 Y130.0 F600
G01 X122.5 Y131.5 F600
G01 X121.5 Y133.0 F600
G01 X121.0 Y131.0 F600
G01 X122.0 Y130.0
G00 Z5
G00 X121.5 Y130.0
G01 Z-1 F200
G01 X121.5 Y130.0 F600
G01 X121.0 Y131.0 F600
G01 X119.5 Y130.5 F600
G01 X121.5 Y130.0
G00 Z5
G00 X123.5 Y121.0
G01 Z-1 F200
G01 X123.5 Y121.0 F600
G01 X125.0 Y121.0 F600
G01 X126.0 Y121.0 F600
G01 X127.0 Y121.5 F600
G01 X128.0 Y122.5 F600
G01 X129.0 Y124.0 F600
G01 X129.0 Y127.0 F600
G01 X128.0 Y128.5 F600
G01 X127.0 Y129.5 F600
G01 X125.0 Y130.5 F600
G01 X123.0 Y130.5 F600
G01 X121.0 Y129.5 F600
G01 X120.0 Y128.5 F600
G01 X119.5 Y127.5 F600
G01 X119.0 Y126.0 F600
G01 X119.0 Y125.0 F600
G01 X119.5 Y123.5 F600
G01 X122.0 Y121.0 F600
G01 X123.5 Y121.0
G00 Z5
G00 X139.0 Y104.0
G01 Z-1 F200
G01 X139.0 Y104.0 F600
G01 X139.0 Y105.0 F600
G01 X138.0 Y107.0 F600
G01 X139.0 Y107.5 F600
G01 X139.5 Y108.5 F600
G01 X141.5 Y107.0 F600
G01 X142.0 Y108.0 F600
G01 X140.5 Y109.5 F600
G01 X142.0 Y110.0 F600
G01 X143.5 Y112.0 F600
G01 X143.5 Y113.5 F600
G01 X144.5 Y113.5 F600
G01 X146.5 Y113.0 F600
G01 X145.5 Y114.0 F600
G01 X145.0 Y115.5 F600
G01 X145.0 Y116.5 F600
G01 X146.0 Y116.0 F600
G01 X148.0 Y115.5 F600
G01 X148.0 Y114.5 F600
G01 X147.0 Y113.5 F600
G01 X146.5 Y112.0 F600
G01 X145.5 Y110.5 F600
G01 X144.0 Y108.5 F600
G01 X141.5 Y106.0 F600
G01 X139.0 Y104.0
G00 Z5
G00 X143.5 Y109.5
G01 Z-1 F200
G01 X143.5 Y109.5 F600
G01 X144.5 Y111.0 F600
G01 X143.0 Y110.5 F600
G01 X143.5 Y109.5
G00 Z5
G00 X113.0 Y102.0
G01 Z-1 F200
G01 X113.0 Y102.0 F600
G01 X111.5 Y102.5 F600
G01 X110.5 Y103.5 F600
G01 X109.0 Y104.5 F600
G01 X107.0 Y104.5 F600
G01 X106.0 Y105.0 F600
G01 X105.5 Y106.5 F600
G01 X108.5 Y109.0 F600
G01 X108.0 Y107.5 F600
G01 X111.0 Y107.0 F600
G01 X109.5 Y104.5 F600
G01 X110.5 Y103.5 F600
G01 X111.0 Y105.0 F600
G01 X112.5 Y104.5 F600
G01 X113.5 Y105.5 F600
G01 X115.0 Y105.0 F600
G01 X115.0 Y104.0 F600
G01 X114.5 Y103.0 F600
G01 X114.0 Y101.5 F600
G01 X113.0 Y102.0
G00 Z5
G00 X106.0 Y105.5
G01 Z-1 F200
G01 X106.0 Y105.5 F600
G01 X107.5 Y105.0 F600
G01 X108.5 Y106.0 F600
G01 X107.0 Y107.0 F600
G01 X106.0 Y105.5
G00 Z5
G00 X113.0 Y102.5
G01 Z-1 F200
G01 X113.0 Y102.5 F600
G01 X113.5 Y104.5 F600
G01 X112.5 Y103.5 F600
G01 X113.0 Y102.5
G00 Z5
G00 X128.5 Y100.0
G01 Z-1 F200
G01 X128.5 Y100.0 F600
G01 X129.0 Y102.0 F600
G01 X130.5 Y102.5 F600
G01 X130.5 Y103.5 F600
G01 X132.0 Y104.0 F600
G01 X132.5 Y103.0 F600
G01 X132.5 Y102.0 F600
G01 X133.0 Y101.0 F600
G01 X134.5 Y101.5 F600
G01 X133.5 Y103.0 F600
G01 X134.5 Y104.0 F600
G01 X134.0 Y105.0 F600
G01 X135.0 Y105.5 F600
G01 X135.5 Y104.5 F600
G01 X135.5 Y103.5 F600
G01 X136.5 Y103.0 F600
G01 X134.0 Y100.0 F600
G01 X133.0 Y100.0 F600
G01 X132.0 Y101.0 F600
G01 X130.0 Y100.0 F600
G01 X128.5 Y100.0
G00 Z5
G00 X117.5 Y101.5
G01 Z-1 F200
G01 X117.5 Y101.5 F600
G01 X118.0 Y102.5 F600
G01 X119.0 Y102.0 F600
G01 X120.0 Y103.5 F600
G01 X120.0 Y102.0 F600
G01 X120.0 Y100.0 F600
G01 X117.5 Y101.5
G00 Z5
G00 X123.0 Y99.0
G01 Z-1 F200
G01 X123.0 Y99.0 F600
G01 X123.5 Y103.0 F600
G01 X124.5 Y98.5 F600
G01 X126.0 Y100.0 F600
G01 X125.0 Y101.5 F600
G01 X126.5 Y103.0 F600
G01 X127.5 Y102.5 F600
G01 X128.0 Y101.0 F600
G01 X126.5 Y99.5 F600
G01 X125.5 Y98.5 F600
G01 X123.0 Y99.0
G00 Z5
G00 X152.0 Y88.5
G01 Z-1 F200
G01 X152.0 Y88.5 F600
G01 X151.0 Y89.5 F600
G01 X151.0 Y91.5 F600
G01 X151.5 Y92.5 F600
G01 X152.5 Y93.5 F600
G01 X153.0 Y94.5 F600
G01 X153.0 Y95.5 F600
G01 X152.5 Y96.5 F600
G01 X151.0 Y98.0 F600
G01 X150.0 Y98.0 F600
G01 X149.0 Y97.0 F600
G01 X148.5 Y95.5 F600
G01 X147.0 Y95.5 F600
G01 X146.0 Y96.5 F600
G01 X146.0 Y98.5 F600
G01 X147.5 Y100.0 F600
G01 X149.0 Y100.5 F600
G01 X150.0 Y100.5 F600
G01 X152.0 Y99.5 F600
G01 X153.5 Y98.0 F600
G01 X154.0 Y96.5 F600
G01 X154.0 Y95.0 F600
G01 X153.5 Y93.5 F600
G01 X153.0 Y92.5 F600
G01 X152.0 Y91.5 F600
G01 X152.0 Y90.0 F600
G01 X153.0 Y88.5 F600
G01 X152.0 Y88.5
G00 Z5
G00 X95.5 Y88.0
G01 Z-1 F200
G01 X95.5 Y88.0 F600
G01 X95.5 Y89.0 F600
G01 X96.5 Y89.5 F600
G01 X97.0 Y90.5 F600
G01 X96.5 Y91.5 F600
G01 X95.5 Y92.5 F600
G01 X95.0 Y93.5 F600
G01 X95.0 Y97.0 F600
G01 X95.5 Y98.0 F600
G01 X97.0 Y99.5 F600
G01 X98.0 Y100.0 F600
G01 X100.5 Y100.0 F600
G01 X101.5 Y99.5 F600
G01 X102.5 Y98.5 F600
G01 X102.5 Y96.0 F600
G01 X99.5 Y96.0 F600
G01 X99.0 Y97.5 F600
G01 X98.0 Y98.0 F600
G01 X96.0 Y96.0 F600
G01 X96.0 Y93.5 F600
G01 X96.5 Y92.5 F600
G01 X97.5 Y91.5 F600
G01 X97.5 Y89.0 F600
G01 X96.5 Y88.0 F600
G01 X95.5 Y88.0
G00 Z5
G00 X140.0 Y83.0
G01 Z-1 F200
G01 X140.0 Y83.0 F600
G01 X140.0 Y84.5 F600
G01 X143.0 Y87.5 F600
G01 X143.5 Y88.5 F600
G01 X143.5 Y90.0 F600
G01 X143.0 Y91.0 F600
G01 X142.0 Y92.0 F600
G01 X141.0 Y92.0 F600
G01 X139.0 Y90.0 F600
G01 X137.5 Y90.5 F600
G01 X137.5 Y93.0 F600
G01 X138.5 Y94.0 F600
G01 X139.5 Y94.5 F600
G01 X141.0 Y94.5 F600
G01 X143.0 Y93.5 F600
G01 X144.0 Y92.5 F600
G01 X144.5 Y91.5 F600
G01 X144.5 Y88.0 F600
G01 X143.0 Y86.0 F600
G01 X141.0 Y84.5 F600
G01 X141.0 Y83.5 F600
G01 X141.5 Y82.0 F600
G01 X140.0 Y83.0
G00 Z5
G00 X107.5 Y81.5
G01 Z-1 F200
G01 X107.5 Y81.5 F600
G01 X107.5 Y82.5 F600
G01 X108.0 Y84.0 F600
G01 X105.5 Y86.5 F600
G01 X104.5 Y88.5 F600
G01 X104.5 Y90.5 F600
G01 X105.5 Y92.5 F600
G01 X106.5 Y93.5 F600
G01 X107.5 Y94.0 F600
G01 X110.0 Y94.0 F600
G01 X112.0 Y92.0 F600
G01 X112.0 Y91.0 F600
G01 X111.5 Y90.0 F600
G01 X110.0 Y89.5 F600
G01 X109.0 Y91.0 F600
G01 X106.5 Y91.0 F600
G01 X106.0 Y90.0 F600
G01 X106.0 Y87.5 F600
G01 X109.0 Y84.5 F600
G01 X109.0 Y82.5 F600
G01 X108.5 Y81.5 F600
G01 X107.5 Y81.5
G00 Z5
G00 X127.5 Y79.5
G01 Z-1 F200
G01 X127.5 Y79.5 F600
G01 X128.0 Y82.0 F600
G01 X129.5 Y83.0 F600
G01 X131.0 Y83.5 F600
G01 X132.0 Y84.5 F600
G01 X132.5 Y86.0 F600
G01 X132.5 Y87.0 F600
G01 X130.5 Y88.5 F600
G01 X129.5 Y87.5 F600
G01 X127.0 Y88.0 F600
G01 X127.0 Y89.5 F600
G01 X127.5 Y90.5 F600
G01 X131.5 Y91.0 F600
G01 X133.5 Y89.0 F600
G01 X134.0 Y87.0 F600
G01 X134.0 Y86.0 F600
G01 X133.5 Y84.5 F600
G01 X132.0 Y83.0 F600
G01 X129.5 Y82.0 F600
G01 X128.5 Y81.0 F600
G01 X128.5 Y79.0 F600
G01 X127.5 Y79.5
G00 Z5
G00 X121.0 Y78.5
G01 Z-1 F200
G01 X121.0 Y78.5 F600
G01 X121.0 Y80.5 F600
G01 X119.5 Y82.0 F600
G01 X117.0 Y83.0 F600
G01 X116.0 Y84.0 F600
G01 X115.5 Y85.0 F600
G01 X115.5 Y88.5 F600
G01 X116.0 Y89.5 F600
G01 X117.5 Y91.0 F600
G01 X121.0 Y91.0 F600
G01 X122.0 Y90.0 F600
G01 X121.5 Y87.5 F600
G01 X120.0 Y87.5 F600
G01 X117.0 Y87.5 F600
G01 X117.0 Y85.0 F600
G01 X119.5 Y83.0 F600
G01 X120.5 Y82.0 F600
G01 X121.5 Y81.0 F600
G01 X121.5 Y79.5 F600
G01 X121.0 Y78.5
G00 Z5
G00 X135.5 Y64.0
G01 Z-1 F200
G01 X135.5 Y64.0 F600
G01 X135.5 Y65.0 F600
G01 X137.5 Y65.0 F600
G01 X138.5 Y66.5 F600
G01 X137.5 Y67.5 F600
G01 X135.5 Y67.0 F600
G01 X136.0 Y68.0 F600
G01 X137.0 Y70.0 F600
G01 X138.0 Y70.5 F600
G01 X138.0 Y68.5 F600
G01 X139.5 Y68.5 F600
G01 X140.5 Y70.0 F600
G01 X139.5 Y72.0 F600
G01 X141.0 Y72.5 F600
G01 X141.0 Y71.0 F600
G01 X141.5 Y68.5 F600
G01 X143.5 Y67.0 F600
G01 X144.5 Y67.0 F600
G01 X145.5 Y67.5 F600
G01 X146.0 Y69.0 F600
G01 X145.0 Y70.0 F600
G01 X144.5 Y69.0 F600
G01 X143.5 Y69.0 F600
G01 X143.5 Y70.0 F600
G01 X144.0 Y73.0 F600
G01 X145.0 Y74.5 F600
G01 X145.5 Y73.0 F600
G01 X145.5 Y71.0 F600
G01 X147.5 Y71.5 F600
G01 X147.5 Y72.5 F600
G01 X148.0 Y73.5 F600
G01 X149.5 Y75.0 F600
G01 X151.0 Y76.5 F600
G01 X151.0 Y77.5 F600
G01 X152.5 Y76.5 F600
G01 X154.0 Y73.0 F600
G01 X155.5 Y72.5 F600
G01 X156.5 Y73.5 F600
G01 X156.0 Y74.5 F600
G01 X155.0 Y75.5 F600
G01 X154.0 Y77.0 F600
G01 X153.5 Y78.0 F600
G01 X153.5 Y79.0 F600
G01 X155.0 Y78.5 F600
G01 X156.0 Y76.0 F600
G01 X157.0 Y74.5 F600
G01 X159.0 Y74.5 F600
G01 X161.0 Y76.0 F600
G01 X162.0 Y77.5 F600
G01 X161.0 Y78.5 F600
G01 X160.0 Y77.5 F600
G01 X158.0 Y76.5 F600
G01 X157.5 Y77.5 F600
G01 X158.5 Y79.0 F600
G01 X160.5 Y78.5 F600
G01 X160.5 Y79.5 F600
G01 X159.5 Y80.5 F600
G01 X158.5 Y81.5 F600
G01 X160.0 Y82.5 F600
G01 X161.5 Y80.0 F600
G01 X163.0 Y78.5 F600
G01 X164.5 Y78.5 F600
G01 X164.5 Y77.5 F600
G01 X163.0 Y77.0 F600
G01 X161.0 Y75.0 F600
G01 X159.0 Y73.5 F600
G01 X157.5 Y73.0 F600
G01 X156.5 Y72.0 F600
G01 X154.0 Y71.0 F600
G01 X153.0 Y70.5 F600
G01 X153.5 Y72.5 F600
G01 X152.0 Y74.0 F600
G01 X151.0 Y74.0 F600
G01 X150.0 Y74.5 F600
G01 X149.5 Y72.5 F600
G01 X151.5 Y72.0 F600
G01 X151.5 Y69.5 F600
G01 X150.5 Y69.0 F600
G01 X149.0 Y69.0 F600
G01 X148.5 Y68.0 F600
G01 X147.5 Y67.5 F600
G01 X146.0 Y67.0 F600
G01 X145.0 Y66.5 F600
G01 X143.5 Y66.0 F600
G01 X141.5 Y65.5 F600
G01 X140.0 Y65.5 F600
G01 X138.0 Y64.5 F600
G01 X136.5 Y64.0 F600
G01 X135.5 Y64.0
G00 Z5
G00 X148.0 Y68.5
G01 Z-1 F200
G01 X148.0 Y68.5 F600
G01 X149.0 Y69.5 F600
G01 X148.5 Y70.5 F600
G01 X147.5 Y71.0 F600
G01 X146.5 Y69.5 F600
G01 X148.0 Y68.5
G00 Z5
G00 X139.5 Y66.0
G01 Z-1 F200
G01 X139.5 Y66.0 F600
G01 X141.0 Y66.5 F600
G01 X140.0 Y68.5 F600
G01 X139.0 Y67.5 F600
G01 X139.5 Y66.0
G00 Z5
G00 X125.0 Y60.5
G01 Z-1 F200
G01 X125.0 Y60.5 F600
G01 X124.5 Y61.5 F600
G01 X124.5 Y62.5 F600
G01 X123.5 Y63.5 F600
G01 X122.5 Y63.5 F600
G01 X117.5 Y63.5 F600
G01 X115.0 Y63.5 F600
G01 X114.0 Y62.5 F600
G01 X112.0 Y61.5 F600
G01 X110.0 Y61.5 F600
G01 X109.0 Y62.0 F600
G01 X108.0 Y63.0 F600
G01 X108.5 Y64.5 F600
G01 X107.5 Y65.5 F600
G01 X106.0 Y65.5 F600
G01 X103.5 Y63.0 F600
G01 X102.5 Y63.0 F600
G01 X103.0 Y64.5 F600
G01 X104.5 Y65.0 F600
G01 X104.5 Y66.5 F600
G01 X103.0 Y66.5 F600
G01 X101.5 Y67.5 F600
G01 X100.5 Y67.5 F600
G01 X99.0 Y68.5 F600
G01 X98.0 Y68.5 F600
G01 X96.5 Y69.5 F600
G01 X95.0 Y69.5 F600
G01 X93.5 Y68.0 F600
G01 X92.5 Y67.5 F600
G01 X92.0 Y69.0 F600
G01 X91.0 Y70.0 F600
G01 X93.5 Y71.0 F600
G01 X92.5 Y72.0 F600
G01 X88.0 Y74.0 F600
G01 X87.5 Y75.0 F600
G01 X89.0 Y75.0 F600
G01 X90.0 Y76.5 F600
G01 X92.0 Y77.5 F600
G01 X92.0 Y78.5 F600
G01 X91.5 Y80.0 F600
G01 X93.0 Y79.5 F600
G01 X94.0 Y77.0 F600
G01 X96.0 Y77.5 F600
G01 X95.0 Y76.5 F600
G01 X94.0 Y75.0 F600
G01 X93.0 Y73.5 F600
G01 X92.5 Y72.5 F600
G01 X93.5 Y71.5 F600
G01 X95.0 Y72.0 F600
G01 X97.0 Y76.5 F600
G01 X98.0 Y75.5 F600
G01 X97.0 Y74.0 F600
G01 X96.5 Y72.5 F600
G01 X95.5 Y71.0 F600
G01 X96.5 Y70.0 F600
G01 X98.5 Y69.0 F600
G01 X100.0 Y69.5 F600
G01 X99.0 Y70.0 F600
G01 X98.0 Y71.5 F600
G01 X99.5 Y73.0 F600
G01 X100.0 Y74.0 F600
G01 X101.0 Y74.5 F600
G01 X103.0 Y73.5 F600
G01 X105.5 Y73.0 F600
G01 X105.0 Y72.0 F600
G01 X104.5 Y70.5 F600
G01 X103.5 Y69.0 F600
G01 X103.0 Y68.0 F600
G01 X104.0 Y67.0 F600
G01 X105.5 Y67.5 F600
G01 X106.0 Y68.5 F600
G01 X106.0 Y70.0 F600
G01 X106.5 Y71.5 F600
G01 X107.5 Y73.0 F600
G01 X108.0 Y71.5 F600
G01 X107.5 Y70.0 F600
G01 X106.5 Y67.5 F600
G01 X107.0 Y66.0 F600
G01 X109.0 Y66.0 F600
G01 X109.5 Y67.5 F600
G01 X109.5 Y69.5 F600
G01 X111.5 Y71.5 F600
G01 X111.5 Y70.5 F600
G01 X111.0 Y69.0 F600
G01 X110.0 Y66.5 F600
G01 X110.5 Y65.0 F600
G01 X113.5 Y65.5 F600
G01 X113.5 Y66.5 F600
G01 X112.5 Y67.0 F600
G01 X113.5 Y68.5 F600
G01 X114.5 Y68.5 F600
G01 X114.0 Y66.0 F600
G01 X114.5 Y64.5 F600
G01 X116.0 Y65.0 F600
G01 X116.0 Y68.0 F600
G01 X116.5 Y70.5 F600
G01 X118.0 Y70.0 F600
G01 X117.0 Y67.5 F600
G01 X117.5 Y64.0 F600
G01 X120.5 Y63.5 F600
G01 X121.5 Y65.0 F600
G01 X120.5 Y65.0 F600
G01 X119.5 Y65.5 F600
G01 X120.0 Y68.5 F600
G01 X122.0 Y69.0 F600
G01 X122.0 Y70.0 F600
G01 X123.0 Y70.0 F600
G01 X124.0 Y69.0 F600
G01 X125.5 Y68.5 F600
G01 X126.0 Y67.5 F600
G01 X125.5 Y65.5 F600
G01 X124.0 Y65.5 F600
G01 X123.0 Y64.5 F600
G01 X124.0 Y63.5 F600
G01 X127.0 Y63.5 F600
G01 X128.0 Y64.5 F600
G01 X127.5 Y68.0 F600
G01 X129.0 Y70.0 F600
G01 X129.0 Y65.0 F600
G01 X130.5 Y63.5 F600
G01 X129.5 Y63.5 F600
G01 X128.5 Y62.5 F600
G01 X128.0 Y61.0 F600
G01 X125.0 Y60.5
G00 Z5
G00 X91.5 Y73.0
G01 Z-1 F200
G01 X91.5 Y73.0 F600
G01 X92.5 Y74.0 F600
G01 X93.0 Y75.0 F600
G01 X92.5 Y76.5 F600
G01 X91.0 Y76.0 F600
G01 X90.0 Y74.0 F600
G01 X91.5 Y73.0
G00 Z5
G00 X102.5 Y68.5
G01 Z-1 F200
G01 X102.5 Y68.5 F600
G01 X103.5 Y70.5 F600
G01 X103.5 Y71.5 F600
G01 X100.5 Y73.0 F600
G01 X100.5 Y72.0 F600
G01 X101.5 Y71.0 F600
G01 X99.0 Y71.0 F600
G01 X100.0 Y70.0 F600
G01 X102.5 Y68.5
G00 Z5
G00 X125.0 Y66.0
G01 Z-1 F200
G01 X125.0 Y66.0 F600
G01 X125.0 Y67.5 F600
G01 X123.0 Y68.0 F600
G01 X123.0 Y66.5 F600
G01 X125.0 Y66.0
G00 Z5
G00 X121.5 Y65.5
G01 Z-1 F200
G01 X121.5 Y65.5 F600
G01 X122.5 Y67.0 F600
G01 X120.5 Y67.5 F600
G01 X121.5 Y65.5
G00 Z5
G00 X110.0 Y62.5
G01 Z-1 F200
G01 X110.0 Y62.5 F600
G01 X112.0 Y62.5 F600
G01 X113.5 Y63.5 F600
G01 X112.5 Y64.5 F600
G01 X110.0 Y65.0 F600
G01 X109.0 Y63.5 F600
G01 X110.0 Y62.5
G00 Z5
G00 X126.5 Y61.0
G01 Z-1 F200
G01 X126.5 Y61.0 F600
G01 X127.5 Y62.0 F600
G01 X126.5 Y63.5 F600
G01 X125.5 Y62.5 F600
G01 X126.5 Y61.0
G00 Z5
G00 X0 Y0
M30
